{"type":"FeatureCollection","features":[{"type":"Feature","properties":{"id":"EDU-0","inst":"PONTIFICIA UNIVERSIDAD CATOLICA DE CHILE","sede":"CAMPUS SAN JOAQUIN","tipo":"Universidades","comuna":"MACUL","matricula":21730,"direccion":"Av. Vicuña Mackenna 4860, Macul","kind":"educacion"},"geometry":{"type":"Point","coordinates":[-70.614901,-33.49966]}},{"type":"Feature","properties":{"id":"EDU-1","inst":"UNIVERSIDAD DE SANTIAGO DE CHILE","sede":"CASA CENTRAL (SANTIAGO)","tipo":"Universidades","comuna":"ESTACION CENTRAL","matricula":17053,"direccion":"Av. Libertador B. O'Higgins 3363, Estación Central","kind":"educacion"},"geometry":{"type":"Point","coordinates":[-70.682868,-33.450377]}},{"type":"Feature","properties":{"id":"EDU-2","inst":"UNIVERSIDAD DEL DESARROLLO","sede":"SEDE SANTIAGO (S.C. APOQUINDO)","tipo":"Universidades","comuna":"LAS CONDES","matricula":9676,"direccion":"Av. Plaza 680, Las Condes","kind":"educacion"},"geometry":{"type":"Point","coordinates":[-70.501203,-33.391302]}},{"type":"Feature","properties":{"id":"EDU-3","inst":"IP DUOC UC","sede":"SEDE MAIPU","tipo":"Institutos Profesionales","comuna":"MAIPU","matricula":8577,"direccion":"Av. Esquina Blanca 501, Maipú","kind":"educacion"},"geometry":{"type":"Point","coordinates":[-70.752147,-33.51175]}},{"type":"Feature","properties":{"id":"EDU-4","inst":"UNIVERSIDAD DE LOS ANDES","sede":"CASA CENTRAL (SANTIAGO)","tipo":"Universidades","comuna":"LAS CONDES","matricula":8509,"direccion":"Monseñor Alvaro Del Portillo 12455","kind":"educacion"},"geometry":{"type":"Point","coordinates":[-70.508281,-33.402614]}},{"type":"Feature","properties":{"id":"EDU-5","inst":"UNIVERSIDAD DE CHILE","sede":"Campus Dra. Eloísa Díaz","tipo":"Universidades","comuna":"INDEPENDENCIA","matricula":7915,"direccion":"Av. Independencia 1027, Independencia","kind":"educacion"},"geometry":{"type":"Point","coordinates":[-70.653343,-33.422376]}},{"type":"Feature","properties":{"id":"EDU-6","inst":"UNIVERSIDAD DE CHILE","sede":"Campus Andrés Bello","tipo":"Universidades","comuna":"SANTIAGO","matricula":2954,"direccion":"Av. Diagonal Paraguay 265, Santiago","kind":"educacion"},"geometry":{"type":"Point","coordinates":[-70.637549,-33.44189]}},{"type":"Feature","properties":{"id":"EDU-7","inst":"UNIVERSIDAD AUTONOMA DE CHILE","sede":"CAMPUS PROVIDENCIA","tipo":"Universidades","comuna":"PROVIDENCIA","matricula":6804,"direccion":"Avenida Pedro De Valdivia 437","kind":"educacion"},"geometry":{"type":"Point","coordinates":[-70.610798,-33.429195]}},{"type":"Feature","properties":{"id":"EDU-8","inst":"UNIVERSIDAD SAN SEBASTIAN","sede":"Campus Bellavista","tipo":"Universidades","comuna":"RECOLETA","matricula":6540,"direccion":"Bellavista 7, Recoleta","kind":"educacion"},"geometry":{"type":"Point","coordinates":[-70.636043,-33.434365]}},{"type":"Feature","properties":{"id":"EDU-9","inst":"IP DUOC UC","sede":"SEDE SAN BERNARDO","tipo":"Institutos Profesionales","comuna":"SAN BERNARDO","matricula":6377,"direccion":"Freire 857, San Bernardo","kind":"educacion"},"geometry":{"type":"Point","coordinates":[-70.705272,-33.598774]}},{"type":"Feature","properties":{"id":"EDU-10","inst":"IP DUOC UC","sede":"SEDE PUENTE ALTO","tipo":"Institutos Profesionales","comuna":"PUENTE ALTO","matricula":6357,"direccion":"Av. Concha y Toro 1340, Puente Alto","kind":"educacion"},"geometry":{"type":"Point","coordinates":[-70.579015,-33.598534]}},{"type":"Feature","properties":{"id":"EDU-11","inst":"PONTIFICIA UNIVERSIDAD CATOLICA DE CHILE","sede":"CASA CENTRAL","tipo":"Universidades","comuna":"SANTIAGO","matricula":6296,"direccion":"Av. Libertador B. O'Higgins 340, Santiago","kind":"educacion"},"geometry":{"type":"Point","coordinates":[-70.641291,-33.441255]}},{"type":"Feature","properties":{"id":"EDU-12","inst":"UNIVERSIDAD SAN SEBASTIAN","sede":"Campus Los Leones","tipo":"Universidades","comuna":"PROVIDENCIA","matricula":6167,"direccion":"Lota 2465, Providencia","kind":"educacion"},"geometry":{"type":"Point","coordinates":[-70.60325,-33.423288]}},{"type":"Feature","properties":{"id":"EDU-13","inst":"CFT DE ENAC","sede":"CASA CENTRAL (SANTIAGO)","tipo":"Centros de Formación Técnica","comuna":"SANTIAGO","matricula":5932,"direccion":"Avenida Libertador Bernardo O'Higgins 2182","kind":"educacion"},"geometry":{"type":"Point","coordinates":[-70.666339,-33.447856]}},{"type":"Feature","properties":{"id":"EDU-14","inst":"UNIVERSIDAD DE CHILE","sede":"Campus Beauchef","tipo":"Universidades","comuna":"SANTIAGO","matricula":5877,"direccion":"Av. Beauchef 850, Santiago","kind":"educacion"},"geometry":{"type":"Point","coordinates":[-70.663379,-33.457737]}},{"type":"Feature","properties":{"id":"EDU-15","inst":"UNIVERSIDAD ALBERTO HURTADO","sede":"CASA CENTRAL (SANTIAGO)","tipo":"Universidades","comuna":"SANTIAGO","matricula":5803,"direccion":"Almirante Barroso 70","kind":"educacion"},"geometry":{"type":"Point","coordinates":[-70.661887,-33.444869]}},{"type":"Feature","properties":{"id":"EDU-16","inst":"UNIVERSIDAD ADOLFO IBAÑEZ","sede":"SEDE PEÑALOLEN","tipo":"Universidades","comuna":"PEÑALOLEN","matricula":5768,"direccion":"Diagonal Las Torres 2640, Peñalolén","kind":"educacion"},"geometry":{"type":"Point","coordinates":[-70.518245,-33.484521]}},{"type":"Feature","properties":{"id":"EDU-17","inst":"UNIVERSIDAD DE CHILE","sede":"Campus Juan Gómez Millas","tipo":"Universidades","comuna":"ÑUÑOA","matricula":6571,"direccion":"Av. Capitán Ignacio Carrera Pinto 1025, Ñuñoa","kind":"educacion"},"geometry":{"type":"Point","coordinates":[-70.595252,-33.465204]}},{"type":"Feature","properties":{"id":"EDU-18","inst":"UNIVERSIDAD FINIS TERRAE","sede":"Campus Pedro de Valdivia","tipo":"Universidades","comuna":"PROVIDENCIA","matricula":5073,"direccion":"Av. Pedro de Valdivia 1509, Providencia","kind":"educacion"},"geometry":{"type":"Point","coordinates":[-70.608444,-33.436914]}},{"type":"Feature","properties":{"id":"EDU-19","inst":"IP DUOC UC","sede":"SEDE ANTONIO VARAS","tipo":"Institutos Profesionales","comuna":"PROVIDENCIA","matricula":5021,"direccion":"Antonio Varas 666, Providencia","kind":"educacion"},"geometry":{"type":"Point","coordinates":[-70.614888,-33.433]}},{"type":"Feature","properties":{"id":"EDU-20","inst":"UNIVERSIDAD DE LAS AMERICAS","sede":"CAMPUS PROVIDENCIA","tipo":"Universidades","comuna":"PROVIDENCIA","matricula":4994,"direccion":"Avenida Libertador Bernardo Ohiggins 4850","kind":"educacion"},"geometry":{"type":"Point","coordinates":[-70.61581,-33.43676]}},{"type":"Feature","properties":{"id":"EDU-21","inst":"IP DUOC UC","sede":"SEDE SAN JOAQUIN","tipo":"Institutos Profesionales","comuna":"SAN JOAQUIN","matricula":4776,"direccion":"Av. Vicuña Mackenna 4917, San Joaquín","kind":"educacion"},"geometry":{"type":"Point","coordinates":[-70.616428,-33.49995]}},{"type":"Feature","properties":{"id":"EDU-22","inst":"UNIVERSIDAD ANDRES BELLO","sede":"Rep. 239 - Fac. Medicina/Enfermería/Principal","tipo":"Universidades","comuna":"SANTIAGO","matricula":4563,"direccion":"República 239, Santiago","kind":"educacion"},"geometry":{"type":"Point","coordinates":[-70.667852,-33.451512]}},{"type":"Feature","properties":{"id":"EDU-23","inst":"IP DE CHILE","sede":"CASA CENTRAL (SANTIAGO)","tipo":"Institutos Profesionales","comuna":"SANTIAGO","matricula":4562,"direccion":"Avenida España 167","kind":"educacion"},"geometry":{"type":"Point","coordinates":[-70.669066,-33.453236]}},{"type":"Feature","properties":{"id":"EDU-24","inst":"UNIVERSIDAD DE LAS AMERICAS","sede":"CAMPUS SANTIAGO CENTRO","tipo":"Universidades","comuna":"SANTIAGO","matricula":4522,"direccion":"Avenida Libertador Bernardo Ohiggins 4850","kind":"educacion"},"geometry":{"type":"Point","coordinates":[-70.668305,-33.449453]}},{"type":"Feature","properties":{"id":"EDU-25","inst":"IP DUOC UC","sede":"SEDE PADRE ALONSO DE OVALLE","tipo":"Institutos Profesionales","comuna":"SANTIAGO","matricula":4494,"direccion":"Padre Alonso de Ovalle 1586, Santiago","kind":"educacion"},"geometry":{"type":"Point","coordinates":[-70.657935,-33.447004]}},{"type":"Feature","properties":{"id":"EDU-26","inst":"UNIVERSIDAD AUTONOMA DE CHILE","sede":"CAMPUS EL LLANO","tipo":"Universidades","comuna":"SAN MIGUEL","matricula":4330,"direccion":"Avenida Pedro De Valdivia 437","kind":"educacion"},"geometry":{"type":"Point","coordinates":[-70.653688,-33.485435]}},{"type":"Feature","properties":{"id":"EDU-27","inst":"UNIVERSIDAD MAYOR","sede":"SEDE HUECHURABA","tipo":"Universidades","comuna":"HUECHURABA","matricula":4193,"direccion":"Camino La Pirámide 5750, Huechuraba","kind":"educacion"},"geometry":{"type":"Point","coordinates":[-70.615141,-33.377318]}},{"type":"Feature","properties":{"id":"EDU-28","inst":"UNIVERSIDAD ANDRES BELLO","sede":"Antonio Varas - Fac. Ingeniería","tipo":"Universidades","comuna":"PROVIDENCIA","matricula":4158,"direccion":"Antonio Varas 880, Providencia","kind":"educacion"},"geometry":{"type":"Point","coordinates":[-70.615376,-33.434863]}},{"type":"Feature","properties":{"id":"EDU-29","inst":"IP DUOC UC","sede":"SEDE PLAZA VESPUCIO","tipo":"Institutos Profesionales","comuna":"LA FLORIDA","matricula":4094,"direccion":"Froilán Roa 7107, La Florida","kind":"educacion"},"geometry":{"type":"Point","coordinates":[-70.598207,-33.516009]}},{"type":"Feature","properties":{"id":"EDU-30","inst":"IP AIEP","sede":"SEDE BELLAVISTA","tipo":"Institutos Profesionales","comuna":"SANTIAGO","matricula":4075,"direccion":"Bellavista 0121, Providencia","kind":"educacion"},"geometry":{"type":"Point","coordinates":[-70.633924,-33.434672]}},{"type":"Feature","properties":{"id":"EDU-31","inst":"UNIVERSIDAD TECNICA FEDERICO SANTA MARIA","sede":"CAMPUS SANTIAGO SAN JOAQUIN","tipo":"Universidades","comuna":"SAN JOAQUIN","matricula":4007,"direccion":"Av. Vicuña Mackenna 3919, San Joaquín","kind":"educacion"},"geometry":{"type":"Point","coordinates":[-70.618667,-33.489961]}},{"type":"Feature","properties":{"id":"EDU-32","inst":"IP DUOC UC","sede":"SEDE PLAZA NORTE","tipo":"Institutos Profesionales","comuna":"HUECHURABA","matricula":4003,"direccion":"Calle Nueva 1660, Huechuraba","kind":"educacion"},"geometry":{"type":"Point","coordinates":[-70.678037,-33.363242]}},{"type":"Feature","properties":{"id":"EDU-33","inst":"UNIVERSIDAD DE CHILE","sede":"Campus Andrés Bello - FEN","tipo":"Universidades","comuna":"PROVIDENCIA","matricula":3767,"direccion":"Av. Andrés Bello 2365, Providencia","kind":"educacion"},"geometry":{"type":"Point","coordinates":[-70.636067,-33.441706]}},{"type":"Feature","properties":{"id":"EDU-34","inst":"IP DUOC UC","sede":"SEDE SAN CARLOS DE APOQUINDO","tipo":"Institutos Profesionales","comuna":"LAS CONDES","matricula":3557,"direccion":"Camino El Alba 12881, Las Condes","kind":"educacion"},"geometry":{"type":"Point","coordinates":[-70.505762,-33.400463]}},{"type":"Feature","properties":{"id":"EDU-35","inst":"UNIVERSIDAD CENTRAL DE CHILE","sede":"SANTIAGO","tipo":"Universidades","comuna":"SANTIAGO","matricula":3512,"direccion":"Lord Cochrane 416","kind":"educacion"},"geometry":{"type":"Point","coordinates":[-70.651531,-33.452565]}},{"type":"Feature","properties":{"id":"EDU-36","inst":"UNIVERSIDAD CENTRAL DE CHILE","sede":"SUB-CAMPUS ALMAGRO NORTE","tipo":"Universidades","comuna":"SANTIAGO","matricula":3481,"direccion":"Lord Cochrane 416","kind":"educacion"},"geometry":{"type":"Point","coordinates":[-70.654183,-33.451358]}},{"type":"Feature","properties":{"id":"EDU-37","inst":"UNIVERSIDAD BERNARDO O'HIGGINS","sede":"CAMPUS RONDIZZONI","tipo":"Universidades","comuna":"SANTIAGO","matricula":3396,"direccion":"Avenida Viel 1497","kind":"educacion"},"geometry":{"type":"Point","coordinates":[-70.65741,-33.471834]}},{"type":"Feature","properties":{"id":"EDU-38","inst":"IP AIEP","sede":"SEDE BARRIO UNIVERSITARIO","tipo":"Institutos Profesionales","comuna":"SANTIAGO","matricula":3367,"direccion":"Ejército 49, Santiago","kind":"educacion"},"geometry":{"type":"Point","coordinates":[-70.661697,-33.447514]}},{"type":"Feature","properties":{"id":"EDU-39","inst":"UNIVERSIDAD SANTO TOMAS","sede":"Campus Ejército","tipo":"Universidades","comuna":"SANTIAGO","matricula":3291,"direccion":"Av. Ejército 146, Santiago","kind":"educacion"},"geometry":{"type":"Point","coordinates":[-70.660697,-33.448753]}},{"type":"Feature","properties":{"id":"EDU-40","inst":"UNIVERSIDAD MAYOR","sede":"SEDE MANUEL MONTT","tipo":"Universidades","comuna":"PROVIDENCIA","matricula":2993,"direccion":"Manuel Montt 367, Providencia","kind":"educacion"},"geometry":{"type":"Point","coordinates":[-70.618752,-33.431927]}},{"type":"Feature","properties":{"id":"EDU-41","inst":"UNIVERSIDAD METROPOLITANA DE CIENCIAS DE LA EDUCACION","sede":"CASA CENTRAL (SANTIAGO)","tipo":"Universidades","comuna":"ÑUÑOA","matricula":2957,"direccion":"Juan Enrique Concha 504","kind":"educacion"},"geometry":{"type":"Point","coordinates":[-70.597793,-33.462446]}},{"type":"Feature","properties":{"id":"EDU-42","inst":"UNIVERSIDAD TECNOLOGICA METROPOLITANA","sede":"SEDE MACUL","tipo":"Universidades","comuna":"ÑUÑOA","matricula":2889,"direccion":"José Pedro Alessandri 1242, Ñuñoa","kind":"educacion"},"geometry":{"type":"Point","coordinates":[-70.597503,-33.465765]}},{"type":"Feature","properties":{"id":"EDU-43","inst":"CFT SANTO TOMAS","sede":"SEDE SANTIAGO","tipo":"Centros de Formación Técnica","comuna":"SANTIAGO","matricula":2880,"direccion":"Exposicion 85","kind":"educacion"},"geometry":{"type":"Point","coordinates":[-70.66241,-33.449235]}},{"type":"Feature","properties":{"id":"EDU-44","inst":"UNIVERSIDAD ANDRES BELLO","sede":"Casona Las Condes - Salud/Educación","tipo":"Universidades","comuna":"LAS CONDES","matricula":2821,"direccion":"Fernández Concha 700, Las Condes","kind":"educacion"},"geometry":{"type":"Point","coordinates":[-70.505999,-33.375358]}},{"type":"Feature","properties":{"id":"EDU-45","inst":"IP DUOC UC","sede":"SEDE ALAMEDA","tipo":"Institutos Profesionales","comuna":"SANTIAGO","matricula":2801,"direccion":"Av. España 8, Santiago","kind":"educacion"},"geometry":{"type":"Point","coordinates":[-70.669951,-33.448879]}},{"type":"Feature","properties":{"id":"EDU-46","inst":"UNIVERSIDAD DE ARTES, CIENCIAS Y COMUNICACION - UNIACC","sede":"CASA CENTRAL (SANTIAGO)","tipo":"Universidades","comuna":"PROVIDENCIA","matricula":2784,"direccion":"Calle Hindenburg 709","kind":"educacion"},"geometry":{"type":"Point","coordinates":[-70.623001,-33.444258]}},{"type":"Feature","properties":{"id":"EDU-47","inst":"IP AIEP","sede":"SEDE SAN JOAQUIN","tipo":"Institutos Profesionales","comuna":"SAN JOAQUIN","matricula":2707,"direccion":"Av. Vicuña Mackenna 4685, San Joaquín","kind":"educacion"},"geometry":{"type":"Point","coordinates":[-70.616718,-33.497032]}},{"type":"Feature","properties":{"id":"EDU-48","inst":"UNIVERSIDAD DIEGO PORTALES","sede":"Fac. Ingeniería","tipo":"Universidades","comuna":"SANTIAGO","matricula":2626,"direccion":"Ejército 441, Santiago","kind":"educacion"},"geometry":{"type":"Point","coordinates":[-70.660613,-33.45254]}},{"type":"Feature","properties":{"id":"EDU-49","inst":"UNIVERSIDAD CATOLICA CARDENAL RAUL SILVA HENRIQUEZ","sede":"Campus Central","tipo":"Universidades","comuna":"SANTIAGO","matricula":2564,"direccion":"General Jofré 462, Santiago","kind":"educacion"},"geometry":{"type":"Point","coordinates":[-70.641932,-33.446823]}},{"type":"Feature","properties":{"id":"EDU-50","inst":"IP INACAP","sede":"SEDE MAIPU","tipo":"Institutos Profesionales","comuna":"MAIPU","matricula":2559,"direccion":"Av. Américo Vespucio 974, Maipú","kind":"educacion"},"geometry":{"type":"Point","coordinates":[-70.755898,-33.480339]}},{"type":"Feature","properties":{"id":"EDU-51","inst":"UNIVERSIDAD TECNICA FEDERICO SANTA MARIA","sede":"CAMPUS SANTIAGO VITACURA","tipo":"Universidades","comuna":"VITACURA","matricula":2559,"direccion":"Av. Santa María 6400, Vitacura","kind":"educacion"},"geometry":{"type":"Point","coordinates":[-70.577393,-33.37757]}},{"type":"Feature","properties":{"id":"EDU-52","inst":"IP SANTO TOMAS","sede":"SEDE SAN JOAQUIN","tipo":"Institutos Profesionales","comuna":"SAN JOAQUIN","matricula":2555,"direccion":"Camino A Catemito 1830","kind":"educacion"},"geometry":{"type":"Point","coordinates":[-70.616471,-33.498956]}},{"type":"Feature","properties":{"id":"EDU-53","inst":"UNIVERSIDAD DE CHILE","sede":"Campus Sur","tipo":"Universidades","comuna":"LA PINTANA","matricula":2711,"direccion":"Av. Santa Rosa 11315, La Pintana","kind":"educacion"},"geometry":{"type":"Point","coordinates":[-70.63136,-33.572867]}},{"type":"Feature","properties":{"id":"EDU-54","inst":"IP DUOC UC","sede":"SEDE MELIPILLA","tipo":"Institutos Profesionales","comuna":"MELIPILLA","matricula":2468,"direccion":"Serrano 1105, Melipilla","kind":"educacion"},"geometry":{"type":"Point","coordinates":[-71.214432,-33.693976]}},{"type":"Feature","properties":{"id":"EDU-55","inst":"IP INACAP","sede":"SEDE RENCA","tipo":"Institutos Profesionales","comuna":"RENCA","matricula":2366,"direccion":"Bravo de Saravia 2980, Renca","kind":"educacion"},"geometry":{"type":"Point","coordinates":[-70.682658,-33.405349]}},{"type":"Feature","properties":{"id":"EDU-56","inst":"IP DUOC UC","sede":"SEDE PLAZA OESTE","tipo":"Institutos Profesionales","comuna":"CERRILLOS","matricula":2361,"direccion":"Av. Américo Vespucio 1501, Cerrillos","kind":"educacion"},"geometry":{"type":"Point","coordinates":[-70.718433,-33.515181]}},{"type":"Feature","properties":{"id":"EDU-57","inst":"IP INACAP","sede":"SEDE SANTIAGO SUR","tipo":"Institutos Profesionales","comuna":"MACUL","matricula":2334,"direccion":"Av. Vicuña Mackenna 3864, Macul","kind":"educacion"},"geometry":{"type":"Point","coordinates":[-70.617041,-33.490369]}},{"type":"Feature","properties":{"id":"EDU-58","inst":"UNIVERSIDAD ANDRES BELLO","sede":"Fac. Economía","tipo":"Universidades","comuna":"HUECHURABA","matricula":2216,"direccion":"Bellavista 101-121, Providencia","kind":"educacion"},"geometry":{"type":"Point","coordinates":[-70.634173,-33.434882]}},{"type":"Feature","properties":{"id":"EDU-59","inst":"CFT SANTO TOMAS","sede":"SEDE PUENTE ALTO","tipo":"Centros de Formación Técnica","comuna":"PUENTE ALTO","matricula":2209,"direccion":"Exposicion 85","kind":"educacion"},"geometry":{"type":"Point","coordinates":[-70.578147,-33.576664]}},{"type":"Feature","properties":{"id":"EDU-60","inst":"UNIVERSIDAD ACADEMIA DE HUMANISMO CRISTIANO","sede":"CASA CENTRAL (CONDELL)","tipo":"Universidades","comuna":"PROVIDENCIA","matricula":2177,"direccion":"Condell 343","kind":"educacion"},"geometry":{"type":"Point","coordinates":[-70.627999,-33.438346]}},{"type":"Feature","properties":{"id":"EDU-61","inst":"UNIVERSIDAD DIEGO PORTALES","sede":"Fac. Economía","tipo":"Universidades","comuna":"HUECHURABA","matricula":2158,"direccion":"Av. Santa Clara 797, Huechuraba","kind":"educacion"},"geometry":{"type":"Point","coordinates":[-70.613043,-33.393839]}},{"type":"Feature","properties":{"id":"EDU-62","inst":"CFT INACAP","sede":"SEDE MAIPU","tipo":"Centros de Formación Técnica","comuna":"MAIPU","matricula":2046,"direccion":"Av. Américo Vespucio 974, Maipú","kind":"educacion"},"geometry":{"type":"Point","coordinates":[-70.755898,-33.480339]}},{"type":"Feature","properties":{"id":"EDU-63","inst":"CFT INACAP","sede":"SEDE SANTIAGO CENTRO","tipo":"Centros de Formación Técnica","comuna":"SANTIAGO","matricula":1998,"direccion":"Almirante Barroso 76, Santiago","kind":"educacion"},"geometry":{"type":"Point","coordinates":[-70.662459,-33.443675]}},{"type":"Feature","properties":{"id":"EDU-64","inst":"PONTIFICIA UNIVERSIDAD CATOLICA DE CHILE","sede":"SEDE LO CONTADOR","tipo":"Universidades","comuna":"PROVIDENCIA","matricula":1983,"direccion":"El Comendador 1916, Providencia","kind":"educacion"},"geometry":{"type":"Point","coordinates":[-70.618073,-33.41999]}},{"type":"Feature","properties":{"id":"EDU-65","inst":"UNIVERSIDAD TECNOLOGICA METROPOLITANA","sede":"CASA CENTRAL","tipo":"Universidades","comuna":"SANTIAGO","matricula":1955,"direccion":"Dieciocho 161, Santiago","kind":"educacion"},"geometry":{"type":"Point","coordinates":[-70.657412,-33.449705]}},{"type":"Feature","properties":{"id":"EDU-66","inst":"UNIVERSIDAD FINIS TERRAE","sede":"Campus Clínico Las Condes","tipo":"Universidades","comuna":"LAS CONDES","matricula":1885,"direccion":"Estoril 450, Las Condes","kind":"educacion"},"geometry":{"type":"Point","coordinates":[-70.53156,-33.38511]}},{"type":"Feature","properties":{"id":"EDU-67","inst":"UNIVERSIDAD DE LAS AMERICAS","sede":"CAMPUS LA FLORIDA","tipo":"Universidades","comuna":"LA FLORIDA","matricula":1865,"direccion":"Avenida Libertador Bernardo Ohiggins 4850","kind":"educacion"},"geometry":{"type":"Point","coordinates":[-70.58357,-33.521776]}},{"type":"Feature","properties":{"id":"EDU-68","inst":"UNIVERSIDAD BERNARDO O'HIGGINS","sede":"CASA CENTRAL (SANTIAGO)","tipo":"Universidades","comuna":"SANTIAGO","matricula":1839,"direccion":"Avenida Viel 1497","kind":"educacion"},"geometry":{"type":"Point","coordinates":[-70.6575,-33.467109]}},{"type":"Feature","properties":{"id":"EDU-69","inst":"UNIVERSIDAD DIEGO PORTALES","sede":"Fac. Salud","tipo":"Universidades","comuna":"SANTIAGO","matricula":1754,"direccion":"Manuel Rodríguez Sur 253, Santiago","kind":"educacion"},"geometry":{"type":"Point","coordinates":[-70.660018,-33.450136]}},{"type":"Feature","properties":{"id":"EDU-70","inst":"IP SANTO TOMAS","sede":"SEDE SANTIAGO","tipo":"Institutos Profesionales","comuna":"SANTIAGO","matricula":1640,"direccion":"Camino A Catemito 1830","kind":"educacion"},"geometry":{"type":"Point","coordinates":[-70.662367,-33.44928]}},{"type":"Feature","properties":{"id":"EDU-71","inst":"UNIVERSIDAD CATOLICA CARDENAL RAUL SILVA HENRIQUEZ","sede":"Campus Lo Cañas","tipo":"Universidades","comuna":"LA FLORIDA","matricula":1636,"direccion":"Lo Cañas 3636, La Florida","kind":"educacion"},"geometry":{"type":"Point","coordinates":[-70.553985,-33.524246]}},{"type":"Feature","properties":{"id":"EDU-72","inst":"IP INACAP","sede":"SEDE APOQUINDO","tipo":"Institutos Profesionales","comuna":"LAS CONDES","matricula":1607,"direccion":"Av. Apoquindo 7282, Las Condes","kind":"educacion"},"geometry":{"type":"Point","coordinates":[-70.55212,-33.407316]}},{"type":"Feature","properties":{"id":"EDU-73","inst":"UNIVERSIDAD ANDRES BELLO","sede":"Rep. 470 - Fac. Cs. de la Vida","tipo":"Universidades","comuna":"SANTIAGO","matricula":1596,"direccion":"República 470, Santiago","kind":"educacion"},"geometry":{"type":"Point","coordinates":[-70.666882,-33.453861]}},{"type":"Feature","properties":{"id":"EDU-74","inst":"UNIVERSIDAD ANDRES BELLO","sede":"Grajales - FACSO/Humanidades","tipo":"Universidades","comuna":"SANTIAGO","matricula":1589,"direccion":"Grajales 2245, Santiago","kind":"educacion"},"geometry":{"type":"Point","coordinates":[-70.667186,-33.451967]}},{"type":"Feature","properties":{"id":"EDU-75","inst":"IP INACAP","sede":"SEDE SANTIAGO CENTRO","tipo":"Institutos Profesionales","comuna":"SANTIAGO","matricula":1528,"direccion":"Almirante Barroso 76, Santiago","kind":"educacion"},"geometry":{"type":"Point","coordinates":[-70.662459,-33.443675]}},{"type":"Feature","properties":{"id":"EDU-76","inst":"UNIVERSIDAD ANDRES BELLO","sede":"Echaurren 237 - Clínica Odontológica","tipo":"Universidades","comuna":"SANTIAGO","matricula":1501,"direccion":"Echaurren 237, Santiago","kind":"educacion"},"geometry":{"type":"Point","coordinates":[-70.666505,-33.45131]}},{"type":"Feature","properties":{"id":"EDU-77","inst":"IP INACAP","sede":"SEDE PUENTE ALTO","tipo":"Institutos Profesionales","comuna":"PUENTE ALTO","matricula":1490,"direccion":"Av. Concha y Toro 2730, Puente Alto","kind":"educacion"},"geometry":{"type":"Point","coordinates":[-70.581263,-33.585495]}},{"type":"Feature","properties":{"id":"EDU-78","inst":"UNIVERSIDAD DIEGO PORTALES","sede":"Fac. Arquitectura","tipo":"Universidades","comuna":"SANTIAGO","matricula":1463,"direccion":"República 180, Santiago","kind":"educacion"},"geometry":{"type":"Point","coordinates":[-70.667505,-33.450698]}},{"type":"Feature","properties":{"id":"EDU-79","inst":"UNIVERSIDAD DIEGO PORTALES","sede":"Casa Central / Aulario","tipo":"Universidades","comuna":"SANTIAGO","matricula":1450,"direccion":"Ejército 412, Santiago","kind":"educacion"},"geometry":{"type":"Point","coordinates":[-70.660169,-33.452073]}},{"type":"Feature","properties":{"id":"EDU-80","inst":"IP ARCOS","sede":"CASA CENTRAL (SANTIAGO)","tipo":"Institutos Profesionales","comuna":"PEÑALOLEN","matricula":1428,"direccion":"Avenida Grecia 8991","kind":"educacion"},"geometry":{"type":"Point","coordinates":[-70.537081,-33.477612]}},{"type":"Feature","properties":{"id":"EDU-81","inst":"UNIVERSIDAD SANTO TOMAS","sede":"Campus San Joaquín","tipo":"Universidades","comuna":"SAN JOAQUIN","matricula":1379,"direccion":"Av. Vicuña Mackenna 4835, San Joaquín","kind":"educacion"},"geometry":{"type":"Point","coordinates":[-70.616471,-33.498956]}},{"type":"Feature","properties":{"id":"EDU-82","inst":"CFT INACAP","sede":"SEDE SANTIAGO SUR (MACUL)","tipo":"Centros de Formación Técnica","comuna":"MACUL","matricula":1370,"direccion":"Av. Vicuña Mackenna 3864, Macul","kind":"educacion"},"geometry":{"type":"Point","coordinates":[-70.617041,-33.490369]}},{"type":"Feature","properties":{"id":"EDU-83","inst":"CFT INACAP","sede":"SEDE PUENTE ALTO","tipo":"Centros de Formación Técnica","comuna":"PUENTE ALTO","matricula":1367,"direccion":"Av. Concha y Toro 2730, Puente Alto","kind":"educacion"},"geometry":{"type":"Point","coordinates":[-70.581263,-33.585495]}},{"type":"Feature","properties":{"id":"EDU-84","inst":"IP ESCUELA DE CONTADORES AUDITORES DE SANTIAGO","sede":"CASA CENTRAL (SANTIAGO)","tipo":"Institutos Profesionales","comuna":"PROVIDENCIA","matricula":1343,"direccion":"Avenida Providencia 2640","kind":"educacion"},"geometry":{"type":"Point","coordinates":[-70.602082,-33.418505]}},{"type":"Feature","properties":{"id":"EDU-85","inst":"UNIVERSIDAD ANDRES BELLO","sede":"Rep. 330 - Fac. Derecho","tipo":"Universidades","comuna":"SANTIAGO","matricula":1334,"direccion":"República 330, Santiago","kind":"educacion"},"geometry":{"type":"Point","coordinates":[-70.667321,-33.452284]}},{"type":"Feature","properties":{"id":"EDU-86","inst":"UNIVERSIDAD DE LAS AMERICAS","sede":"CAMPUS MAIPU","tipo":"Universidades","comuna":"MAIPU","matricula":1274,"direccion":"Avenida Libertador Bernardo Ohiggins 4850","kind":"educacion"},"geometry":{"type":"Point","coordinates":[-70.75006,-33.51001]}},{"type":"Feature","properties":{"id":"EDU-87","inst":"CFT SANTO TOMAS","sede":"SEDE SAN JOAQUIN","tipo":"Centros de Formación Técnica","comuna":"SAN JOAQUIN","matricula":1214,"direccion":"Exposicion 85","kind":"educacion"},"geometry":{"type":"Point","coordinates":[-70.616652,-33.498734]}},{"type":"Feature","properties":{"id":"EDU-88","inst":"IP INACAP","sede":"SEDE LA GRANJA","tipo":"Institutos Profesionales","comuna":"LA GRANJA","matricula":1205,"direccion":"Av. Américo Vespucio 315, La Granja","kind":"educacion"},"geometry":{"type":"Point","coordinates":[-70.62748,-33.543266]}},{"type":"Feature","properties":{"id":"EDU-89","inst":"UNIVERSIDAD DIEGO PORTALES","sede":"Fac. Derecho","tipo":"Universidades","comuna":"SANTIAGO","matricula":1147,"direccion":"República 105, Santiago","kind":"educacion"},"geometry":{"type":"Point","coordinates":[-70.668091,-33.450427]}},{"type":"Feature","properties":{"id":"EDU-90","inst":"CFT INACAP","sede":"SEDE LA GRANJA","tipo":"Centros de Formación Técnica","comuna":"LA GRANJA","matricula":1131,"direccion":"Av. Américo Vespucio 315, La Granja","kind":"educacion"},"geometry":{"type":"Point","coordinates":[-70.627635,-33.543301]}},{"type":"Feature","properties":{"id":"EDU-91","inst":"IP AIEP","sede":"SEDE MAIPU","tipo":"Institutos Profesionales","comuna":"MAIPU","matricula":1126,"direccion":"Chacabuco 40, Maipú","kind":"educacion"},"geometry":{"type":"Point","coordinates":[-70.75782,-33.509126]}},{"type":"Feature","properties":{"id":"EDU-92","inst":"CFT INACAP","sede":"SEDE RENCA","tipo":"Centros de Formación Técnica","comuna":"RENCA","matricula":1100,"direccion":"Bravo de Saravia 2980, Renca","kind":"educacion"},"geometry":{"type":"Point","coordinates":[-70.682658,-33.405349]}},{"type":"Feature","properties":{"id":"EDU-93","inst":"UNIVERSIDAD TECNOLOGICA METROPOLITANA","sede":"SEDE PROVIDENCIA","tipo":"Universidades","comuna":"PROVIDENCIA","matricula":1092,"direccion":"Dr. Hernán Alessandri 644, Providencia","kind":"educacion"},"geometry":{"type":"Point","coordinates":[-70.62545,-33.434595]}},{"type":"Feature","properties":{"id":"EDU-94","inst":"UNIVERSIDAD DIEGO PORTALES","sede":"Fac. Comunicación","tipo":"Universidades","comuna":"SANTIAGO","matricula":1082,"direccion":"Vergara 240, Santiago","kind":"educacion"},"geometry":{"type":"Point","coordinates":[-70.661855,-33.450145]}},{"type":"Feature","properties":{"id":"EDU-95","inst":"UNIVERSIDAD DEL ALBA","sede":"CASA CENTRAL (SANTIAGO - PROVIDENCIA)","tipo":"Universidades","comuna":"PROVIDENCIA","matricula":1079,"direccion":"Avenida Ejercito Libertador 171","kind":"educacion"},"geometry":{"type":"Point","coordinates":[-70.661276,-33.449014]}},{"type":"Feature","properties":{"id":"EDU-96","inst":"IP AIEP","sede":"SEDE SANTIAGO NORTE","tipo":"Institutos Profesionales","comuna":"CONCHALI","matricula":1045,"direccion":"Av. Américo Vespucio 1796, Conchalí","kind":"educacion"},"geometry":{"type":"Point","coordinates":[-70.680638,-33.367832]}},{"type":"Feature","properties":{"id":"EDU-97","inst":"IP LOS LEONES","sede":"CASA CENTRAL","tipo":"Institutos Profesionales","comuna":"PROVIDENCIA","matricula":1867,"direccion":"Av. Los Leones 510, Providencia","kind":"educacion"},"geometry":{"type":"Point","coordinates":[-70.649774,-33.448476]}},{"type":"Feature","properties":{"id":"EDU-98","inst":"CFT INACAP","sede":"SEDE APOQUINDO","tipo":"Centros de Formación Técnica","comuna":"LAS CONDES","matricula":1016,"direccion":"Av. Apoquindo 7282, Las Condes","kind":"educacion"},"geometry":{"type":"Point","coordinates":[-70.55212,-33.407316]}},{"type":"Feature","properties":{"id":"EDU-99","inst":"PONTIFICIA UNIVERSIDAD CATOLICA DE CHILE","sede":"CAMPUS ORIENTE","tipo":"Universidades","comuna":"ÑUÑOA","matricula":1011,"direccion":"Av. Jaime Guzmán Errázuriz 3300, Ñuñoa","kind":"educacion"},"geometry":{"type":"Point","coordinates":[-70.593795,-33.445788]}},{"type":"Feature","properties":{"id":"EDU-100","inst":"IP AIEP","sede":"SEDE SAN BERNARDO","tipo":"Institutos Profesionales","comuna":"SAN BERNARDO","matricula":971,"direccion":"San José 672, San Bernardo","kind":"educacion"},"geometry":{"type":"Point","coordinates":[-70.70754,-33.595759]}},{"type":"Feature","properties":{"id":"EDU-101","inst":"UNIVERSIDAD DIEGO PORTALES","sede":"Fac. Educación","tipo":"Universidades","comuna":"SANTIAGO","matricula":939,"direccion":"Vergara 210, Santiago","kind":"educacion"},"geometry":{"type":"Point","coordinates":[-70.661937,-33.449904]}},{"type":"Feature","properties":{"id":"EDU-102","inst":"UNIVERSIDAD DIEGO PORTALES","sede":"Fac. Psicología","tipo":"Universidades","comuna":"SANTIAGO","matricula":929,"direccion":"Vergara 275, Santiago","kind":"educacion"},"geometry":{"type":"Point","coordinates":[-70.661759,-33.450663]}},{"type":"Feature","properties":{"id":"EDU-103","inst":"UNIVERSIDAD MAYOR","sede":"SEDE DEL CLAUSTRO","tipo":"Universidades","comuna":"SANTIAGO","matricula":916,"direccion":"Av. Portugal 351, Santiago","kind":"educacion"},"geometry":{"type":"Point","coordinates":[-70.636701,-33.446859]}},{"type":"Feature","properties":{"id":"EDU-104","inst":"UNIVERSIDAD ANDRES BELLO","sede":"Campus Creativo - Arq/Diseño/Artes","tipo":"Universidades","comuna":"RECOLETA","matricula":903,"direccion":"Ernesto Pinto Lagarrigue 230, Recoleta","kind":"educacion"},"geometry":{"type":"Point","coordinates":[-70.638205,-33.431589]}},{"type":"Feature","properties":{"id":"EDU-105","inst":"UNIVERSIDAD GABRIELA MISTRAL","sede":"CASA CENTRAL","tipo":"Universidades","comuna":"PROVIDENCIA","matricula":866,"direccion":"Ricardo Lyon 1177","kind":"educacion"},"geometry":{"type":"Point","coordinates":[-70.621746,-33.427047]}},{"type":"Feature","properties":{"id":"EDU-106","inst":"UNIVERSIDAD ACADEMIA DE HUMANISMO CRISTIANO","sede":"CAMPUS REPUBLICA","tipo":"Universidades","comuna":"SANTIAGO","matricula":861,"direccion":"Condell 343","kind":"educacion"},"geometry":{"type":"Point","coordinates":[-70.663388,-33.440993]}},{"type":"Feature","properties":{"id":"EDU-107","inst":"UNIVERSIDAD ANDRES BELLO","sede":"Sazié 2212 - Fac. Cs. Exactas","tipo":"Universidades","comuna":"SANTIAGO","matricula":838,"direccion":"Sazié 2212, Santiago","kind":"educacion"},"geometry":{"type":"Point","coordinates":[-70.666736,-33.454173]}},{"type":"Feature","properties":{"id":"EDU-108","inst":"UNIVERSIDAD DEL DESARROLLO","sede":"SEDE SANTIAGO (LAS CONDES)","tipo":"Universidades","comuna":"LAS CONDES","matricula":838,"direccion":"Av. Las Condes 12438, Lo Barnechea","kind":"educacion"},"geometry":{"type":"Point","coordinates":[-70.51636,-33.371624]}},{"type":"Feature","properties":{"id":"EDU-109","inst":"UNIVERSIDAD DIEGO PORTALES","sede":"Fac. Cs. Sociales","tipo":"Universidades","comuna":"SANTIAGO","matricula":832,"direccion":"Ejército 333, Santiago","kind":"educacion"},"geometry":{"type":"Point","coordinates":[-70.660819,-33.451121]}},{"type":"Feature","properties":{"id":"EDU-110","inst":"UNIVERSIDAD MAYOR","sede":"SEDE ORIENTE","tipo":"Universidades","comuna":"SANTIAGO","matricula":741,"direccion":"Apoquindo 6949, Las Condes","kind":"educacion"},"geometry":{"type":"Point","coordinates":[-70.557905,-33.408149]}},{"type":"Feature","properties":{"id":"EDU-111","inst":"UNIVERSIDAD DE VALPARAISO","sede":"CAMPUS SANTIAGO","tipo":"Universidades","comuna":"SAN MIGUEL","matricula":716,"direccion":"Avenida Jose Miguel Carrera 4160","kind":"educacion"},"geometry":{"type":"Point","coordinates":[-70.650873,-33.491974]}},{"type":"Feature","properties":{"id":"EDU-112","inst":"UNIVERSIDAD MAYOR","sede":"SEDE ALAMEDA","tipo":"Universidades","comuna":"SANTIAGO","matricula":684,"direccion":"Av. Libertador B. O'Higgins 2027, Santiago","kind":"educacion"},"geometry":{"type":"Point","coordinates":[-70.663941,-33.446197]}},{"type":"Feature","properties":{"id":"EDU-113","inst":"UNIVERSIDAD MIGUEL DE CERVANTES","sede":"CASA CENTRAL (SANTIAGO)","tipo":"Universidades","comuna":"SANTIAGO","matricula":617,"direccion":"Enrique Mac-Iver 370","kind":"educacion"},"geometry":{"type":"Point","coordinates":[-70.647178,-33.438419]}},{"type":"Feature","properties":{"id":"EDU-114","inst":"IP INSTITUTO NACIONAL DEL FUTBOL","sede":"CASA CENTRAL (SANTIAGO-PEÑALOLEN)","tipo":"Institutos Profesionales","comuna":"PEÑALOLEN","matricula":597,"direccion":"El Libano 5001","kind":"educacion"},"geometry":{"type":"Point","coordinates":[-70.592621,-33.496793]}},{"type":"Feature","properties":{"id":"EDU-115","inst":"IP ESCUELA MODERNA DE MUSICA","sede":"CASA CENTRAL (SANTIAGO)","tipo":"Institutos Profesionales","comuna":"VITACURA","matricula":537,"direccion":"Antonia Lopez De Bello 120","kind":"educacion"},"geometry":{"type":"Point","coordinates":[-70.582346,-33.396082]}},{"type":"Feature","properties":{"id":"EDU-116","inst":"UNIVERSIDAD MAYOR","sede":"SEDE SANTO DOMINGO","tipo":"Universidades","comuna":"SANTIAGO","matricula":420,"direccion":"Santo Domingo 711, Santiago","kind":"educacion"},"geometry":{"type":"Point","coordinates":[-70.64768,-33.435356]}},{"type":"Feature","properties":{"id":"EDU-117","inst":"UNIVERSIDAD SEK","sede":"SEDE SANTIAGO CENTRO","tipo":"Universidades","comuna":"SANTIAGO","matricula":418,"direccion":"Fernando Manterola 789, Providencia","kind":"educacion"},"geometry":{"type":"Point","coordinates":[-70.626099,-33.430022]}},{"type":"Feature","properties":{"id":"EDU-118","inst":"IP ESCUELA DE COMERCIO DE SANTIAGO","sede":"CASA CENTRAL (SANTIAGO)","tipo":"Institutos Profesionales","comuna":"SANTIAGO","matricula":413,"direccion":"Sazie 1902","kind":"educacion"},"geometry":{"type":"Point","coordinates":[-70.667466,-33.450867]}},{"type":"Feature","properties":{"id":"EDU-119","inst":"IP INACAP","sede":"SEDE ÑUÑOA","tipo":"Institutos Profesionales","comuna":"ÑUÑOA","matricula":397,"direccion":"Brown Norte 290, Ñuñoa","kind":"educacion"},"geometry":{"type":"Point","coordinates":[-70.591924,-33.452566]}},{"type":"Feature","properties":{"id":"EDU-120","inst":"UNIVERSIDAD ADOLFO IBAÑEZ","sede":"SEDE VITACURA","tipo":"Universidades","comuna":"VITACURA","matricula":387,"direccion":"Av. Santa María 5870, Vitacura","kind":"educacion"},"geometry":{"type":"Point","coordinates":[-70.586067,-33.380148]}},{"type":"Feature","properties":{"id":"EDU-121","inst":"UNIVERSIDAD DE TALCA","sede":"CAMPUS SANTIAGO","tipo":"Universidades","comuna":"SAN JOAQUIN","matricula":378,"direccion":"Quebec 415","kind":"educacion"},"geometry":{"type":"Point","coordinates":[-70.627799,-33.436691]}},{"type":"Feature","properties":{"id":"EDU-122","inst":"CFT INSTITUTO CENTRAL DE CAPACITACION EDUCACIONAL ICCE","sede":"CASA CENTRAL (SANTIAGO)","tipo":"Centros de Formación Técnica","comuna":"SANTIAGO","matricula":376,"direccion":"Ejercito 27","kind":"educacion"},"geometry":{"type":"Point","coordinates":[-70.661404,-33.448457]}},{"type":"Feature","properties":{"id":"EDU-123","inst":"UNIVERSIDAD ARTURO PRAT","sede":"SEDE SANTIAGO","tipo":"Universidades","comuna":"SANTIAGO","matricula":361,"direccion":"Avenida San Pablo 1796","kind":"educacion"},"geometry":{"type":"Point","coordinates":[-70.662722,-33.434819]}},{"type":"Feature","properties":{"id":"EDU-124","inst":"UNIVERSIDAD DIEGO PORTALES","sede":"Fac. Medicina","tipo":"Universidades","comuna":"SANTIAGO","matricula":347,"direccion":"Ejército 141, Santiago","kind":"educacion"},"geometry":{"type":"Point","coordinates":[-70.661318,-33.448857]}},{"type":"Feature","properties":{"id":"EDU-125","inst":"IP EATRI","sede":"CASA CENTRAL","tipo":"Institutos Profesionales","comuna":"PROVIDENCIA","matricula":312,"direccion":"Avenida Condell 451","kind":"educacion"},"geometry":{"type":"Point","coordinates":[-70.627806,-33.439189]}},{"type":"Feature","properties":{"id":"EDU-126","inst":"IP INSTITUTO INTERNACIONAL DE ARTES CULINARIAS Y SERVICIOS","sede":"SEDE SANTIAGO","tipo":"Institutos Profesionales","comuna":"LO BARNECHEA","matricula":281,"direccion":"Avenida La Dehesa 2541","kind":"educacion"},"geometry":{"type":"Point","coordinates":[-70.518255,-33.35557]}},{"type":"Feature","properties":{"id":"EDU-127","inst":"IP LATINOAMERICANO DE COMERCIO EXTERIOR - IPLACEX","sede":"SEDE SANTIAGO","tipo":"Institutos Profesionales","comuna":"SANTIAGO","matricula":279,"direccion":"Compañia De Jesus 2015","kind":"educacion"},"geometry":{"type":"Point","coordinates":[-70.665096,-33.439709]}},{"type":"Feature","properties":{"id":"EDU-128","inst":"CFT DEL MEDIO AMBIENTE","sede":"CASA CENTRAL (SANTIAGO)","tipo":"Centros de Formación Técnica","comuna":null,"matricula":274,"direccion":"Los Tilos 5","kind":"educacion"},"geometry":{"type":"Point","coordinates":[-70.663997,-33.442369]}},{"type":"Feature","properties":{"id":"EDU-129","inst":"UNIVERSIDAD DE LAS AMERICAS","sede":"CAMPUS MELIPILLA","tipo":"Universidades","comuna":"MELIPILLA","matricula":249,"direccion":"Avenida Libertador Bernardo Ohiggins 4850","kind":"educacion"},"geometry":{"type":"Point","coordinates":[-71.213955,-33.672644]}},{"type":"Feature","properties":{"id":"EDU-130","inst":"IP SAN SEBASTIAN","sede":"CASA CENTRAL (SANTIAGO)","tipo":"Institutos Profesionales","comuna":"SANTIAGO","matricula":238,"direccion":"Avenida Libertador Bernardo O'Higgins 2221","kind":"educacion"},"geometry":{"type":"Point","coordinates":[-70.620114,-33.432985]}},{"type":"Feature","properties":{"id":"EDU-131","inst":"IP PROJAZZ","sede":"CASA CENTRAL","tipo":"Institutos Profesionales","comuna":"PROVIDENCIA","matricula":225,"direccion":"Ramon Carnicer 27","kind":"educacion"},"geometry":{"type":"Point","coordinates":[-70.638787,-33.432469]}},{"type":"Feature","properties":{"id":"EDU-132","inst":"CFT LAPLACE","sede":"SEDE COLINA","tipo":"Centros de Formación Técnica","comuna":"COLINA","matricula":194,"direccion":"Avenida Concepcion 264","kind":"educacion"},"geometry":{"type":"Point","coordinates":[-70.673455,-33.204686]}},{"type":"Feature","properties":{"id":"EDU-133","inst":"CFT INACAP","sede":"SEDE ÑUÑOA","tipo":"Centros de Formación Técnica","comuna":"ÑUÑOA","matricula":191,"direccion":"Brown Norte 290, Ñuñoa","kind":"educacion"},"geometry":{"type":"Point","coordinates":[-70.591924,-33.452566]}},{"type":"Feature","properties":{"id":"EDU-134","inst":"UNIVERSIDAD ANDRES BELLO","sede":"Salvador Sanfuentes - Fac. Comunicación","tipo":"Universidades","comuna":"SANTIAGO","matricula":178,"direccion":"Salvador Sanfuentes 2355, Santiago","kind":"educacion"},"geometry":{"type":"Point","coordinates":[-70.668836,-33.450032]}},{"type":"Feature","properties":{"id":"EDU-135","inst":"CFT DE LA REGION METROPOLITANA DE SANTIAGO","sede":"Lampa","tipo":"Centros de Formación Técnica","comuna":"LAMPA","matricula":175,"direccion":"Av. Nicanor Plaza 18, Lampa","kind":"educacion"},"geometry":{"type":"Point","coordinates":[-70.6782,-33.2598]}},{"type":"Feature","properties":{"id":"EDU-136","inst":"IP CHILENO BRITANICO DE CULTURA","sede":"CASA CENTRAL (SANTIAGO)","tipo":"Institutos Profesionales","comuna":"SANTIAGO","matricula":172,"direccion":"Huérfanos 554","kind":"educacion"},"geometry":{"type":"Point","coordinates":[-70.644803,-33.439235]}},{"type":"Feature","properties":{"id":"EDU-137","inst":"IP INSTITUTO DE ESTUDIOS BANCARIOS GUILLERMO SUBERCASEAUX","sede":"CASA CENTRAL (SANTIAGO)","tipo":"Institutos Profesionales","comuna":"SANTIAGO","matricula":137,"direccion":"Huérfanos 1840","kind":"educacion"},"geometry":{"type":"Point","coordinates":[-70.657327,-33.441567]}},{"type":"Feature","properties":{"id":"EDU-138","inst":"CFT ALPES","sede":"CASA CENTRAL (SANTIAGO)","tipo":"Centros de Formación Técnica","comuna":"SANTIAGO","matricula":120,"direccion":"Republica 430","kind":"educacion"},"geometry":{"type":"Point","coordinates":[-70.666987,-33.453639]}},{"type":"Feature","properties":{"id":"EDU-139","inst":"UNIVERSIDAD SEK","sede":"y cóm ","tipo":"Universidades","comuna":"PROVIDENCIA","matricula":119,"direccion":"Fernando Manterola 789, Providencia","kind":"educacion"},"geometry":{"type":"Point","coordinates":[-70.626361,-33.430642]}},{"type":"Feature","properties":{"id":"EDU-140","inst":"UNIVERSIDAD MAYOR","sede":"SEDE ALONSO DE CORDOVA","tipo":"Universidades","comuna":"LAS CONDES","matricula":97,"direccion":"Av. Alonso de Córdova 5495, Las Condes","kind":"educacion"},"geometry":{"type":"Point","coordinates":[-70.573223,-33.407221]}},{"type":"Feature","properties":{"id":"EDU-141","inst":"CFT MANPOWER","sede":"CASA CENTRAL (SANTIAGO)","tipo":"Centros de Formación Técnica","comuna":"SANTIAGO","matricula":94,"direccion":"Paulino Alfonso 361","kind":"educacion"},"geometry":{"type":"Point","coordinates":[-70.638791,-33.437656]}},{"type":"Feature","properties":{"id":"EDU-142","inst":"UNIVERSIDAD LA REPUBLICA","sede":"Sede Santiago","tipo":"Universidades","comuna":"SANTIAGO","matricula":71,"direccion":"Av. República 513, Santiago","kind":"educacion"},"geometry":{"type":"Point","coordinates":[-70.6624,-33.441665]}},{"type":"Feature","properties":{"id":"EDU-143","inst":"UNIVERSIDAD DE LOS LAGOS","sede":"SEDE SANTIAGO","tipo":"Universidades","comuna":"SANTIAGO","matricula":66,"direccion":"Avenida Republica 517","kind":"educacion"},"geometry":{"type":"Point","coordinates":[-70.667175,-33.454822]}},{"type":"Feature","properties":{"id":"EDU-144","inst":"IP IPG","sede":"SEDE PROVIDENCIA","tipo":"Institutos Profesionales","comuna":"PROVIDENCIA","matricula":63,"direccion":"General Salvo 20","kind":"educacion"},"geometry":{"type":"Point","coordinates":[-70.612043,-33.426776]}},{"type":"Feature","properties":{"id":"EDU-145","inst":"UNIVERSIDAD MAYOR","sede":"SEDE CONSERVATORIO DE MUSICA","tipo":"Universidades","comuna":"LAS CONDES","matricula":63,"direccion":"Apoquindo 5009, Las Condes","kind":"educacion"},"geometry":{"type":"Point","coordinates":[-70.576261,-33.411826]}},{"type":"Feature","properties":{"id":"EDU-146","inst":"CFT INSTITUTO SUPERIOR ALEMAN DE COMERCIO INSALCO","sede":"CASA CENTRAL (SANTIAGO)","tipo":"Centros de Formación Técnica","comuna":"VITACURA","matricula":57,"direccion":"Nuestra Señora Del Rosario 1120","kind":"educacion"},"geometry":{"type":"Point","coordinates":[-70.569239,-33.395475]}},{"type":"Feature","properties":{"id":"EDU-147","inst":"PONTIFICIA UNIVERSIDAD CATOLICA DE VALPARAISO","sede":"Providencia","tipo":"Universidades","comuna":"PROVIDENCIA","matricula":47,"direccion":"Av. Providencia 1681, Providencia","kind":"educacion"},"geometry":{"type":"Point","coordinates":[-70.613,-33.4283]}},{"type":"Feature","properties":{"id":"EDU-148","inst":"PONTIFICIA UNIVERSIDAD CATOLICA DE VALPARAISO","sede":"Providencia","tipo":"Universidades","comuna":"PROVIDENCIA","matricula":47,"direccion":"Av. Providencia 1681, Providencia","kind":"educacion"},"geometry":{"type":"Point","coordinates":[-70.619242,-33.424802]}},{"type":"Feature","properties":{"id":"EDU-149","inst":"UNIVERSIDAD DE CHILE","sede":"Campus Derecho","tipo":"Universidades","comuna":"PROVIDENCIA","matricula":2838,"direccion":"Pío Nono 1, Providencia","kind":"educacion"},"geometry":{"type":"Point","coordinates":[-70.635002,-33.435264]}},{"type":"Feature","properties":{"id":"EDU-150","inst":"UNIVERSIDAD DE CHILE","sede":"Fac. Artes - Sede Letelier","tipo":"Universidades","comuna":"SANTIAGO","matricula":434,"direccion":"Compañía 1264, Santiago","kind":"educacion"},"geometry":{"type":"Point","coordinates":[-70.65684,-33.438985]}},{"type":"Feature","properties":{"id":"EDU-151","inst":"UNIVERSIDAD DE CHILE","sede":"Fac. Artes - Sede Pedro de la Barra","tipo":"Universidades","comuna":"SANTIAGO","matricula":172,"direccion":"Morandé 750, Santiago","kind":"educacion"},"geometry":{"type":"Point","coordinates":[-70.653719,-33.43933]}}]}