{"type":"FeatureCollection","name":"Estaciones_Metro_Santiago","crs":{"type":"name","properties":{"name":"urn:ogc:def:crs:OGC:1.3:CRS84"}},"_meta":{"fuente":"GTFS Santiago · Red Metropolitana de Movilidad","n":126},"features":[{"type":"Feature","properties":{"id":"AG","nombre":"Camino Agrícola","tipo":"Metro"},"geometry":{"type":"Point","coordinates":[-70.617491,-33.491921]}},{"type":"Feature","properties":{"id":"AH","nombre":"San Alberto Hurtado","tipo":"Metro"},"geometry":{"type":"Point","coordinates":[-70.692277,-33.454211]}},{"type":"Feature","properties":{"id":"AL","nombre":"Alcántara","tipo":"Metro"},"geometry":{"type":"Point","coordinates":[-70.589663,-33.415419]}},{"type":"Feature","properties":{"id":"AN-NA","nombre":"Santa Ana","tipo":"Metro"},"geometry":{"type":"Point","coordinates":[-70.659737,-33.4383]}},{"type":"Feature","properties":{"id":"AV","nombre":"Vespucio Norte","tipo":"Metro"},"geometry":{"type":"Point","coordinates":[-70.646629,-33.380833]}},{"type":"Feature","properties":{"id":"BA-BQ","nombre":"Baquedano","tipo":"Metro"},"geometry":{"type":"Point","coordinates":[-70.634157,-33.437465]}},{"type":"Feature","properties":{"id":"BE","nombre":"Bellas Artes","tipo":"Metro"},"geometry":{"type":"Point","coordinates":[-70.644239,-33.436437]}},{"type":"Feature","properties":{"id":"BIL","nombre":"Francisco Bilbao","tipo":"Metro"},"geometry":{"type":"Point","coordinates":[-70.584925,-33.43166]}},{"type":"Feature","properties":{"id":"BIO","nombre":"Bío Bío","tipo":"Metro"},"geometry":{"type":"Point","coordinates":[-70.64236,-33.47666]}},{"type":"Feature","properties":{"id":"BL","nombre":"Blanqueado","tipo":"Metro"},"geometry":{"type":"Point","coordinates":[-70.706884,-33.441131]}},{"type":"Feature","properties":{"id":"BR","nombre":"Barrancas","tipo":"Metro"},"geometry":{"type":"Point","coordinates":[-70.739578,-33.4527]}},{"type":"Feature","properties":{"id":"CA-PCA","nombre":"Puente Cal y Canto","tipo":"Metro"},"geometry":{"type":"Point","coordinates":[-70.653219,-33.432945]}},{"type":"Feature","properties":{"id":"CAR","nombre":"Cardenal Caro","tipo":"Metro"},"geometry":{"type":"Point","coordinates":[-70.686283,-33.373314]}},{"type":"Feature","properties":{"id":"CB","nombre":"Cerro Blanco","tipo":"Metro"},"geometry":{"type":"Point","coordinates":[-70.645234,-33.422701]}},{"type":"Feature","properties":{"id":"CCH","nombre":"Conchalí","tipo":"Metro"},"geometry":{"type":"Point","coordinates":[-70.669564,-33.397531]}},{"type":"Feature","properties":{"id":"CE","nombre":"Cementerios","tipo":"Metro"},"geometry":{"type":"Point","coordinates":[-70.643831,-33.413869]}},{"type":"Feature","properties":{"id":"CER","nombre":"Cerrillos","tipo":"Metro"},"geometry":{"type":"Point","coordinates":[-70.694744,-33.483438]}},{"type":"Feature","properties":{"id":"CH-UCH","nombre":"Universidad de Chile","tipo":"Metro"},"geometry":{"type":"Point","coordinates":[-70.650357,-33.443674]}},{"type":"Feature","properties":{"id":"CM","nombre":"Copa Lo Martinez","tipo":"Metro"},"geometry":{"type":"Point","coordinates":[-70.67366,-33.57088]}},{"type":"Feature","properties":{"id":"CN","nombre":"Ciudad del Niño","tipo":"Metro"},"geometry":{"type":"Point","coordinates":[-70.656663,-33.509613]}},{"type":"Feature","properties":{"id":"COL","nombre":"Cristóbal Colón","tipo":"Metro"},"geometry":{"type":"Point","coordinates":[-70.591357,-33.426239]}},{"type":"Feature","properties":{"id":"CV","nombre":"Carlos Valdovinos","tipo":"Metro"},"geometry":{"type":"Point","coordinates":[-70.619021,-33.486573]}},{"type":"Feature","properties":{"id":"DE","nombre":"Departamental","tipo":"Metro"},"geometry":{"type":"Point","coordinates":[-70.654644,-33.502504]}},{"type":"Feature","properties":{"id":"DO","nombre":"Dorsal","tipo":"Metro"},"geometry":{"type":"Point","coordinates":[-70.642995,-33.396749]}},{"type":"Feature","properties":{"id":"DS","nombre":"Del Sol","tipo":"Metro"},"geometry":{"type":"Point","coordinates":[-70.753539,-33.489988]}},{"type":"Feature","properties":{"id":"EB","nombre":"El Bosque","tipo":"Metro"},"geometry":{"type":"Point","coordinates":[-70.66699,-33.54642]}},{"type":"Feature","properties":{"id":"EC","nombre":"Ecuador","tipo":"Metro"},"geometry":{"type":"Point","coordinates":[-70.699709,-33.455852]}},{"type":"Feature","properties":{"id":"ECO","nombre":"Elisa Correa","tipo":"Metro"},"geometry":{"type":"Point","coordinates":[-70.583827,-33.568978]}},{"type":"Feature","properties":{"id":"EI","nombre":"Einstein","tipo":"Metro"},"geometry":{"type":"Point","coordinates":[-70.64351,-33.405617]}},{"type":"Feature","properties":{"id":"EL","nombre":"Estación Central","tipo":"Metro"},"geometry":{"type":"Point","coordinates":[-70.679076,-33.45104]}},{"type":"Feature","properties":{"id":"EM","nombre":"Escuela Militar","tipo":"Metro"},"geometry":{"type":"Point","coordinates":[-70.583413,-33.413796]}},{"type":"Feature","properties":{"id":"EP","nombre":"El Parrón","tipo":"Metro"},"geometry":{"type":"Point","coordinates":[-70.661392,-33.52643]}},{"type":"Feature","properties":{"id":"ESN","nombre":"Estadio Nacional","tipo":"Metro"},"geometry":{"type":"Point","coordinates":[-70.606929,-33.462634]}},{"type":"Feature","properties":{"id":"ESP","nombre":"Chile España","tipo":"Metro"},"geometry":{"type":"Point","coordinates":[-70.597489,-33.455206]}},{"type":"Feature","properties":{"id":"FCV","nombre":"Fernando Castillo Velasco","tipo":"Metro"},"geometry":{"type":"Point","coordinates":[-70.558179,-33.452321]}},{"type":"Feature","properties":{"id":"FER","nombre":"Ferrocarril","tipo":"Metro"},"geometry":{"type":"Point","coordinates":[-70.70593,-33.36515]}},{"type":"Feature","properties":{"id":"FRA-FR","nombre":"Franklin","tipo":"Metro"},"geometry":{"type":"Point","coordinates":[-70.649112,-33.476364]}},{"type":"Feature","properties":{"id":"GL","nombre":"Gruta de Lourdes","tipo":"Metro"},"geometry":{"type":"Point","coordinates":[-70.690941,-33.438271]}},{"type":"Feature","properties":{"id":"GO","nombre":"El Golf","tipo":"Metro"},"geometry":{"type":"Point","coordinates":[-70.596186,-33.416681]}},{"type":"Feature","properties":{"id":"HM","nombre":"Hernando de Magallanes","tipo":"Metro"},"geometry":{"type":"Point","coordinates":[-70.556103,-33.408201]}},{"type":"Feature","properties":{"id":"HOS","nombre":"Hospitales","tipo":"Metro"},"geometry":{"type":"Point","coordinates":[-70.656054,-33.417829]}},{"type":"Feature","properties":{"id":"HSR","nombre":"Hospital Sótero del Río","tipo":"Metro"},"geometry":{"type":"Point","coordinates":[-70.582317,-33.576746]}},{"type":"Feature","properties":{"id":"IRA-IR","nombre":"Irarrázaval","tipo":"Metro"},"geometry":{"type":"Point","coordinates":[-70.628622,-33.453315]}},{"type":"Feature","properties":{"id":"ISU","nombre":"Inés de Suárez","tipo":"Metro"},"geometry":{"type":"Point","coordinates":[-70.606742,-33.43841]}},{"type":"Feature","properties":{"id":"LA","nombre":"Unión Latinoamericana","tipo":"Metro"},"geometry":{"type":"Point","coordinates":[-70.673397,-33.449305]}},{"type":"Feature","properties":{"id":"LC-LCI","nombre":"La Cisterna","tipo":"Metro"},"geometry":{"type":"Point","coordinates":[-70.664509,-33.537626]}},{"type":"Feature","properties":{"id":"LCR","nombre":"Lo Cruzat","tipo":"Metro"},"geometry":{"type":"Point","coordinates":[-70.720481,-33.366443]}},{"type":"Feature","properties":{"id":"LD","nombre":"Los Dominicos","tipo":"Metro"},"geometry":{"type":"Point","coordinates":[-70.545116,-33.407966]}},{"type":"Feature","properties":{"id":"LE-LEN","nombre":"Los Leones","tipo":"Metro"},"geometry":{"type":"Point","coordinates":[-70.608332,-33.42135]}},{"type":"Feature","properties":{"id":"LF","nombre":"Bellavista de La Florida","tipo":"Metro"},"geometry":{"type":"Point","coordinates":[-70.599869,-33.519674]}},{"type":"Feature","properties":{"id":"LGR","nombre":"La Granja","tipo":"Metro"},"geometry":{"type":"Point","coordinates":[-70.616041,-33.541151]}},{"type":"Feature","properties":{"id":"LH-HE","nombre":"Los Héroes","tipo":"Metro"},"geometry":{"type":"Point","coordinates":[-70.661486,-33.446414]}},{"type":"Feature","properties":{"id":"LIB","nombre":"Los Libertadores","tipo":"Metro"},"geometry":{"type":"Point","coordinates":[-70.690667,-33.365575]}},{"type":"Feature","properties":{"id":"LL","nombre":"El Llano","tipo":"Metro"},"geometry":{"type":"Point","coordinates":[-70.649491,-33.482592]}},{"type":"Feature","properties":{"id":"LM","nombre":"La Moneda","tipo":"Metro"},"geometry":{"type":"Point","coordinates":[-70.655185,-33.444869]}},{"type":"Feature","properties":{"id":"LME","nombre":"Las Mercedes","tipo":"Metro"},"geometry":{"type":"Point","coordinates":[-70.577489,-33.601407]}},{"type":"Feature","properties":{"id":"LO","nombre":"Lo Ovalle","tipo":"Metro"},"geometry":{"type":"Point","coordinates":[-70.658853,-33.51729]}},{"type":"Feature","properties":{"id":"LOR","nombre":"Los Orientales","tipo":"Metro"},"geometry":{"type":"Point","coordinates":[-70.573869,-33.462428]}},{"type":"Feature","properties":{"id":"LP","nombre":"Las Parcelas","tipo":"Metro"},"geometry":{"type":"Point","coordinates":[-70.740398,-33.475021]}},{"type":"Feature","properties":{"id":"LPR","nombre":"Los Presidentes","tipo":"Metro"},"geometry":{"type":"Point","coordinates":[-70.578619,-33.479612]}},{"type":"Feature","properties":{"id":"LQU","nombre":"Los Quillayes","tipo":"Metro"},"geometry":{"type":"Point","coordinates":[-70.585288,-33.560877]}},{"type":"Feature","properties":{"id":"LR","nombre":"Las Rejas","tipo":"Metro"},"geometry":{"type":"Point","coordinates":[-70.706599,-33.457514]}},{"type":"Feature","properties":{"id":"LS","nombre":"Laguna Sur","tipo":"Metro"},"geometry":{"type":"Point","coordinates":[-70.738134,-33.462384]}},{"type":"Feature","properties":{"id":"LTO","nombre":"Las Torres","tipo":"Metro"},"geometry":{"type":"Point","coordinates":[-70.586675,-33.499429]}},{"type":"Feature","properties":{"id":"LV","nombre":"Lo Vial","tipo":"Metro"},"geometry":{"type":"Point","coordinates":[-70.652997,-33.496842]}},{"type":"Feature","properties":{"id":"LVA","nombre":"Lo Valledor","tipo":"Metro"},"geometry":{"type":"Point","coordinates":[-70.680962,-33.477694]}},{"type":"Feature","properties":{"id":"MA","nombre":"Mirador","tipo":"Metro"},"geometry":{"type":"Point","coordinates":[-70.606208,-33.513087]}},{"type":"Feature","properties":{"id":"MAC","nombre":"Macul","tipo":"Metro"},"geometry":{"type":"Point","coordinates":[-70.590071,-33.509381]}},{"type":"Feature","properties":{"id":"MAT","nombre":"Matta","tipo":"Metro"},"geometry":{"type":"Point","coordinates":[-70.642977,-33.457966]}},{"type":"Feature","properties":{"id":"MEY","nombre":"Monseñor Eyzaguirre","tipo":"Metro"},"geometry":{"type":"Point","coordinates":[-70.613785,-33.453375]}},{"type":"Feature","properties":{"id":"MM","nombre":"Manuel Montt","tipo":"Metro"},"geometry":{"type":"Point","coordinates":[-70.619631,-33.428654]}},{"type":"Feature","properties":{"id":"MQ","nombre":"Manquehue","tipo":"Metro"},"geometry":{"type":"Point","coordinates":[-70.568908,-33.409227]}},{"type":"Feature","properties":{"id":"MT","nombre":"Monte Tabor","tipo":"Metro"},"geometry":{"type":"Point","coordinates":[-70.745823,-33.482091]}},{"type":"Feature","properties":{"id":"NP","nombre":"Neptuno","tipo":"Metro"},"geometry":{"type":"Point","coordinates":[-70.722665,-33.451466]}},{"type":"Feature","properties":{"id":"NU-NUB","nombre":"Ñuble","tipo":"Metro"},"geometry":{"type":"Point","coordinates":[-70.625628,-33.467438]}},{"type":"Feature","properties":{"id":"NUN-NUO","nombre":"Ñuñoa","tipo":"Metro"},"geometry":{"type":"Point","coordinates":[-70.605107,-33.454426]}},{"type":"Feature","properties":{"id":"OB","nombre":"Observatorio","tipo":"Metro"},"geometry":{"type":"Point","coordinates":[-70.6703,-33.56039]}},{"type":"Feature","properties":{"id":"PAC","nombre":"Presidente Pedro Aguirre Cerda","tipo":"Metro"},"geometry":{"type":"Point","coordinates":[-70.664988,-33.478477]}},{"type":"Feature","properties":{"id":"PAL","nombre":"Parque Almagro","tipo":"Metro"},"geometry":{"type":"Point","coordinates":[-70.650662,-33.451431]}},{"type":"Feature","properties":{"id":"PB","nombre":"Parque Bustamante","tipo":"Metro"},"geometry":{"type":"Point","coordinates":[-70.632085,-33.442826]}},{"type":"Feature","properties":{"id":"PDG","nombre":"Príncipe de Gales","tipo":"Metro"},"geometry":{"type":"Point","coordinates":[-70.57301,-33.438917]}},{"type":"Feature","properties":{"id":"PE","nombre":"Pedrero","tipo":"Metro"},"geometry":{"type":"Point","coordinates":[-70.612344,-33.508054]}},{"type":"Feature","properties":{"id":"PEG-PZE","nombre":"Plaza Egaña","tipo":"Metro"},"geometry":{"type":"Point","coordinates":[-70.570911,-33.453245]}},{"type":"Feature","properties":{"id":"PI","nombre":"Hospital El Pino","tipo":"Metro"},"geometry":{"type":"Point","coordinates":[-70.67676,-33.582685]}},{"type":"Feature","properties":{"id":"PIN","nombre":"Protectora de la Infancia","tipo":"Metro"},"geometry":{"type":"Point","coordinates":[-70.579677,-33.589281]}},{"type":"Feature","properties":{"id":"PJ","nombre":"Pajaritos","tipo":"Metro"},"geometry":{"type":"Point","coordinates":[-70.715639,-33.457361]}},{"type":"Feature","properties":{"id":"PM","nombre":"Plaza de Maipú","tipo":"Metro"},"geometry":{"type":"Point","coordinates":[-70.756893,-33.509923]}},{"type":"Feature","properties":{"id":"PPA","nombre":"Plaza de Puente Alto","tipo":"Metro"},"geometry":{"type":"Point","coordinates":[-70.575633,-33.60942]}},{"type":"Feature","properties":{"id":"PQ","nombre":"Parque O'Higgins","tipo":"Metro"},"geometry":{"type":"Point","coordinates":[-70.656876,-33.460701]}},{"type":"Feature","properties":{"id":"PQU","nombre":"Plaza Quilicura","tipo":"Metro"},"geometry":{"type":"Point","coordinates":[-70.72939,-33.365694]}},{"type":"Feature","properties":{"id":"PR","nombre":"Lo Prado","tipo":"Metro"},"geometry":{"type":"Point","coordinates":[-70.716864,-33.443204]}},{"type":"Feature","properties":{"id":"PT","nombre":"Patronato","tipo":"Metro"},"geometry":{"type":"Point","coordinates":[-70.647186,-33.429494]}},{"type":"Feature","properties":{"id":"PU","nombre":"Pudahuel","tipo":"Metro"},"geometry":{"type":"Point","coordinates":[-70.740976,-33.4447]}},{"type":"Feature","properties":{"id":"PV","nombre":"Pedro de Valdivia","tipo":"Metro"},"geometry":{"type":"Point","coordinates":[-70.613821,-33.425231]}},{"type":"Feature","properties":{"id":"PZ-PZA","nombre":"Plaza de Armas","tipo":"Metro"},"geometry":{"type":"Point","coordinates":[-70.650989,-33.437454]}},{"type":"Feature","properties":{"id":"PZC","nombre":"Plaza Chacabuco","tipo":"Metro"},"geometry":{"type":"Point","coordinates":[-70.660871,-33.406435]}},{"type":"Feature","properties":{"id":"QN","nombre":"Quinta Normal","tipo":"Metro"},"geometry":{"type":"Point","coordinates":[-70.680446,-33.440395]}},{"type":"Feature","properties":{"id":"RA","nombre":"Rodrigo de Araya","tipo":"Metro"},"geometry":{"type":"Point","coordinates":[-70.622192,-33.478073]}},{"type":"Feature","properties":{"id":"RC","nombre":"Cumming","tipo":"Metro"},"geometry":{"type":"Point","coordinates":[-70.668727,-33.439081]}},{"type":"Feature","properties":{"id":"RGR","nombre":"Grecia","tipo":"Metro"},"geometry":{"type":"Point","coordinates":[-70.576022,-33.469598]}},{"type":"Feature","properties":{"id":"RMA","nombre":"Rojas Magallanes","tipo":"Metro"},"geometry":{"type":"Point","coordinates":[-70.592853,-33.535751]}},{"type":"Feature","properties":{"id":"RO","nombre":"Rondizzoni","tipo":"Metro"},"geometry":{"type":"Point","coordinates":[-70.656325,-33.470183]}},{"type":"Feature","properties":{"id":"RP","nombre":"República","tipo":"Metro"},"geometry":{"type":"Point","coordinates":[-70.666738,-33.447704]}},{"type":"Feature","properties":{"id":"RQU","nombre":"Quilín","tipo":"Metro"},"geometry":{"type":"Point","coordinates":[-70.580248,-33.488276]}},{"type":"Feature","properties":{"id":"SA","nombre":"Salvador","tipo":"Metro"},"geometry":{"type":"Point","coordinates":[-70.625935,-33.432823]}},{"type":"Feature","properties":{"id":"SB","nombre":"Santiago Bueras","tipo":"Metro"},"geometry":{"type":"Point","coordinates":[-70.757302,-33.496779]}},{"type":"Feature","properties":{"id":"SBO","nombre":"Simón Bolívar","tipo":"Metro"},"geometry":{"type":"Point","coordinates":[-70.571867,-33.446107]}},{"type":"Feature","properties":{"id":"SI","nombre":"Santa Isabel","tipo":"Metro"},"geometry":{"type":"Point","coordinates":[-70.630519,-33.446967]}},{"type":"Feature","properties":{"id":"SJ","nombre":"San Joaquín","tipo":"Metro"},"geometry":{"type":"Point","coordinates":[-70.615762,-33.498833]}},{"type":"Feature","properties":{"id":"SJE","nombre":"San José de la Estrella","tipo":"Metro"},"geometry":{"type":"Point","coordinates":[-70.586562,-33.553463]}},{"type":"Feature","properties":{"id":"SJU","nombre":"Santa Julia","tipo":"Metro"},"geometry":{"type":"Point","coordinates":[-70.605538,-33.531105]}},{"type":"Feature","properties":{"id":"SL","nombre":"Santa Lucía","tipo":"Metro"},"geometry":{"type":"Point","coordinates":[-70.645014,-33.442602]}},{"type":"Feature","properties":{"id":"SM","nombre":"San Miguel","tipo":"Metro"},"geometry":{"type":"Point","coordinates":[-70.651106,-33.488729]}},{"type":"Feature","properties":{"id":"SP-SO","nombre":"San Pablo","tipo":"Metro"},"geometry":{"type":"Point","coordinates":[-70.723021,-33.444865]}},{"type":"Feature","properties":{"id":"SRA","nombre":"San Ramón","tipo":"Metro"},"geometry":{"type":"Point","coordinates":[-70.643032,-33.541256]}},{"type":"Feature","properties":{"id":"SRO","nombre":"Santa Rosa","tipo":"Metro"},"geometry":{"type":"Point","coordinates":[-70.634111,-33.542416]}},{"type":"Feature","properties":{"id":"TB-TOB","nombre":"Tobalaba","tipo":"Metro"},"geometry":{"type":"Point","coordinates":[-70.601929,-33.41812]}},{"type":"Feature","properties":{"id":"TO","nombre":"Toesca","tipo":"Metro"},"geometry":{"type":"Point","coordinates":[-70.658582,-33.452974]}},{"type":"Feature","properties":{"id":"TRI","nombre":"Trinidad","tipo":"Metro"},"geometry":{"type":"Point","coordinates":[-70.587818,-33.546932]}},{"type":"Feature","properties":{"id":"UC","nombre":"Universidad Católica","tipo":"Metro"},"geometry":{"type":"Point","coordinates":[-70.639969,-33.439878]}},{"type":"Feature","properties":{"id":"US","nombre":"Universidad de Santiago","tipo":"Metro"},"geometry":{"type":"Point","coordinates":[-70.686188,-33.452711]}},{"type":"Feature","properties":{"id":"VFR","nombre":"Villa Frei","tipo":"Metro"},"geometry":{"type":"Point","coordinates":[-70.580146,-33.454816]}},{"type":"Feature","properties":{"id":"VIV","nombre":"Vivaceta","tipo":"Metro"},"geometry":{"type":"Point","coordinates":[-70.679303,-33.385377]}},{"type":"Feature","properties":{"id":"VMA-VIM","nombre":"Vicuña Mackenna","tipo":"Metro"},"geometry":{"type":"Point","coordinates":[-70.596213,-33.519824]}},{"type":"Feature","properties":{"id":"VVA-VV","nombre":"Vicente Valdés","tipo":"Metro"},"geometry":{"type":"Point","coordinates":[-70.596854,-33.526388]}},{"type":"Feature","properties":{"id":"ZA","nombre":"Zapadores","tipo":"Metro"},"geometry":{"type":"Point","coordinates":[-70.642581,-33.391309]}}]}