{"type":"FeatureCollection","name":"Monumentos_Nacionales_RM","crs":{"type":"name","properties":{"name":"urn:ogc:def:crs:OGC:1.3:CRS84"}},"_meta":{"fuente":"Consejo de Monumentos Nacionales · Puntos de Monumentos Nacionales RM","n":351},"features":[{"type":"Feature","properties":{"id":"00135_MH_13502","nombre":"Iglesia de Alhué","categoria":"Monumento Histórico","tipo":"Inmueble","comuna":"Alhué","raiz":null,"comp":null},"geometry":{"type":"Point","coordinates":[-71.099345,-34.031698]}},{"type":"Feature","properties":{"id":"00098_MH_13402","nombre":"El Parque de la Viña Santa Rita","categoria":"Monumento Histórico","tipo":"Inmueble","comuna":"Buin","raiz":null,"comp":"Parque"},"geometry":{"type":"Point","coordinates":[-70.67532,-33.727611]}},{"type":"Feature","properties":{"id":"00099_MH_13402","nombre":"El Parque de la Viña Santa Rita","categoria":"Monumento Histórico","tipo":"Inmueble","comuna":"Buin","raiz":"00098_MH_13402","comp":"Casa principal"},"geometry":{"type":"Point","coordinates":[-70.673359,-33.728981]}},{"type":"Feature","properties":{"id":"00100_MH_13402","nombre":"El Parque de la Viña Santa Rita","categoria":"Monumento Histórico","tipo":"Inmueble","comuna":"Buin","raiz":"00098_MH_13402","comp":"Capilla"},"geometry":{"type":"Point","coordinates":[-70.673648,-33.729327]}},{"type":"Feature","properties":{"id":"00101_MH_13402","nombre":"El Parque de la Viña Santa Rita","categoria":"Monumento Histórico","tipo":"Inmueble","comuna":"Buin","raiz":"00098_MH_13402","comp":"Bodegas"},"geometry":{"type":"Point","coordinates":[-70.676014,-33.725338]}},{"type":"Feature","properties":{"id":"00087_MH_13403","nombre":"Casa de los Religiosos de Calera de Tango, con su Iglesia y dependencias contiguas","categoria":"Monumento Histórico","tipo":"Inmueble","comuna":"Calera de Tango","raiz":null,"comp":"Casa, Iglesia y dependencias contiguas"},"geometry":{"type":"Point","coordinates":[-70.803437,-33.637662]}},{"type":"Feature","properties":{"id":"00079_MH_13301","nombre":"La Torre, el atrio y uno de los muros perimetrales de la Iglesia de la Inmaculada Concepción","categoria":"Monumento Histórico","tipo":"Inmueble","comuna":"Colina","raiz":null,"comp":"Torre, Atrio y Muro perimetral"},"geometry":{"type":"Point","coordinates":[-70.679719,-33.203533]}},{"type":"Feature","properties":{"id":"00394_MH_13301","nombre":"Casas y Capilla de la Hacienda de Chacabuco","categoria":"Monumento Histórico","tipo":"Inmueble","comuna":"Colina","raiz":null,"comp":"Casas"},"geometry":{"type":"Point","coordinates":[-70.690609,-33.027696]}},{"type":"Feature","properties":{"id":"00395_MH_13301","nombre":"Casas y Capilla de la Hacienda de Chacabuco","categoria":"Monumento Histórico","tipo":"Inmueble","comuna":"Colina","raiz":"00394_MH_13301","comp":"Capilla"},"geometry":{"type":"Point","coordinates":[-70.691023,-33.027886]}},{"type":"Feature","properties":{"id":"00136_MH_13602","nombre":"Iglesia de El Monte","categoria":"Monumento Histórico","tipo":"Inmueble","comuna":"El Monte","raiz":null,"comp":null},"geometry":{"type":"Point","coordinates":[-70.978881,-33.678181]}},{"type":"Feature","properties":{"id":"00137_MH_13602","nombre":"Casas del Fundo San Miguel","categoria":"Monumento Histórico","tipo":"Inmueble","comuna":"El Monte","raiz":null,"comp":null},"geometry":{"type":"Point","coordinates":[-70.969888,-33.674429]}},{"type":"Feature","properties":{"id":"00330_MH_13106","nombre":"Conjunto de Edificios de la Estación Central de Ferrocarriles o Estación Alameda","categoria":"Monumento Histórico","tipo":"Inmueble","comuna":"Estación Central","raiz":null,"comp":null},"geometry":{"type":"Point","coordinates":[-70.67893,-33.45173]}},{"type":"Feature","properties":{"id":"00416_MH_13106","nombre":"Escuela de Artes y Oficios","categoria":"Monumento Histórico","tipo":"Inmueble","comuna":"Estación Central","raiz":null,"comp":null},"geometry":{"type":"Point","coordinates":[-70.686316,-33.45041]}},{"type":"Feature","properties":{"id":"00411_MH_13106","nombre":"Ex Pabellón de la Exposición de París","categoria":"Monumento Histórico","tipo":"Inmueble","comuna":"Estación Central","raiz":null,"comp":null},"geometry":{"type":"Point","coordinates":[-70.684151,-33.44459]}},{"type":"Feature","properties":{"id":"01041_MH_13106","nombre":"Maestranza de Ferrocarriles San Eugenio y edificaciones anexas","categoria":"Monumento Histórico","tipo":"Inmueble","comuna":"Estación Central","raiz":"01040_MH_13106","comp":"Casa de Máquinas N° 2"},"geometry":{"type":"Point","coordinates":[-70.676823,-33.474851]}},{"type":"Feature","properties":{"id":"01042_MH_13106","nombre":"Maestranza de Ferrocarriles San Eugenio y edificaciones anexas","categoria":"Monumento Histórico","tipo":"Inmueble","comuna":"Estación Central","raiz":"01040_MH_13106","comp":"Tornamesa N° 1"},"geometry":{"type":"Point","coordinates":[-70.677159,-33.475457]}},{"type":"Feature","properties":{"id":"01043_MH_13106","nombre":"Maestranza de Ferrocarriles San Eugenio y edificaciones anexas","categoria":"Monumento Histórico","tipo":"Inmueble","comuna":"Estación Central","raiz":"01040_MH_13106","comp":"Tornamesa N° 2"},"geometry":{"type":"Point","coordinates":[-70.674812,-33.475417]}},{"type":"Feature","properties":{"id":"01046_MH_13106","nombre":"Maestranza de Ferrocarriles San Eugenio y edificaciones anexas","categoria":"Monumento Histórico","tipo":"Inmueble","comuna":"Estación Central","raiz":"01040_MH_13106","comp":"Chimenea Industrial"},"geometry":{"type":"Point","coordinates":[-70.675748,-33.476035]}},{"type":"Feature","properties":{"id":"00579_MH_13107","nombre":"Casas patronales, bodegas y parque del ex Fundo  El Salto o Palacio Riesco","categoria":"Monumento Histórico","tipo":"Inmueble","comuna":"Huechuraba","raiz":null,"comp":"Casas Patronales Bodega y Parque."},"geometry":{"type":"Point","coordinates":[-70.623928,-33.393882]}},{"type":"Feature","properties":{"id":"00092_MH_13108","nombre":"Iglesia y Convento Buen Pastor","categoria":"Monumento Histórico","tipo":"Inmueble","comuna":"Independencia","raiz":null,"comp":"Iglesia"},"geometry":{"type":"Point","coordinates":[-70.66034,-33.426309]}},{"type":"Feature","properties":{"id":"00093_MH_13108","nombre":"Iglesia y Convento Buen Pastor","categoria":"Monumento Histórico","tipo":"Inmueble","comuna":"Independencia","raiz":null,"comp":"Convento"},"geometry":{"type":"Point","coordinates":[-70.659943,-33.426236]}},{"type":"Feature","properties":{"id":"00267_MH_13108","nombre":"Capilla del Antiguo Lazareto de San Vicente de Paul","categoria":"Monumento Histórico","tipo":"Inmueble","comuna":"Independencia","raiz":null,"comp":null},"geometry":{"type":"Point","coordinates":[-70.653996,-33.41947]}},{"type":"Feature","properties":{"id":"00341_MH_13108","nombre":"Iglesia y patios del Monasterio del Carmen de San Rafael","categoria":"Monumento Histórico","tipo":"Inmueble","comuna":"Independencia","raiz":null,"comp":"Iglesia y patios"},"geometry":{"type":"Point","coordinates":[-70.653304,-33.42929]}},{"type":"Feature","properties":{"id":"00383_MH_13108","nombre":"Cervecería de Andrés Ebner","categoria":"Monumento Histórico","tipo":"Inmueble","comuna":"Independencia","raiz":null,"comp":null},"geometry":{"type":"Point","coordinates":[-70.654874,-33.42412]}},{"type":"Feature","properties":{"id":"00760_MH_13302","nombre":"Capilla Nuestra Señora del Trabajo","categoria":"Monumento Histórico","tipo":"Inmueble","comuna":"Lampa","raiz":null,"comp":null},"geometry":{"type":"Point","coordinates":[-70.765542,-33.24242]}},{"type":"Feature","properties":{"id":"00268_MH_13114","nombre":"Casa  y Parque del Instituto Cultural de las Condes, ex Chacra el Rosario","categoria":"Monumento Histórico","tipo":"Inmueble","comuna":"Las Condes","raiz":null,"comp":"Casa y Parque"},"geometry":{"type":"Point","coordinates":[-70.561984,-33.406489]}},{"type":"Feature","properties":{"id":"00283_MH_13114","nombre":"Iglesia y conjunto de edificios del Monasterio Benedictino","categoria":"Monumento Histórico","tipo":"Inmueble","comuna":"Las Condes","raiz":null,"comp":"Iglesia"},"geometry":{"type":"Point","coordinates":[-70.513612,-33.384113]}},{"type":"Feature","properties":{"id":"00284_MH_13114","nombre":"Iglesia y conjunto de edificios del Monasterio Benedictino","categoria":"Monumento Histórico","tipo":"Inmueble","comuna":"Las Condes","raiz":"00283_MH_13114","comp":"Conjunto de edificios del monasterio"},"geometry":{"type":"Point","coordinates":[-70.513066,-33.384458]}},{"type":"Feature","properties":{"id":"00313_MH_13114","nombre":"Casona de Las Condes","categoria":"Monumento Histórico","tipo":"Inmueble","comuna":"Las Condes","raiz":null,"comp":"Casona y su entorno"},"geometry":{"type":"Point","coordinates":[-70.504851,-33.375834]}},{"type":"Feature","properties":{"id":"00339_MH_13114","nombre":"Iglesia de San Vicente Ferrer de Los Dominicos","categoria":"Monumento Histórico","tipo":"Inmueble","comuna":"Las Condes","raiz":null,"comp":null},"geometry":{"type":"Point","coordinates":[-70.541939,-33.407625]}},{"type":"Feature","properties":{"id":"00465_MH_13501","nombre":"Iglesia y Claustro de San Agustín de Melipilla","categoria":"Monumento Histórico","tipo":"Inmueble","comuna":"Melipilla","raiz":null,"comp":"Iglesia"},"geometry":{"type":"Point","coordinates":[-71.210802,-33.686448]}},{"type":"Feature","properties":{"id":"00466_MH_13501","nombre":"Iglesia y Claustro de San Agustín de Melipilla","categoria":"Monumento Histórico","tipo":"Inmueble","comuna":"Melipilla","raiz":"00465_MH_13501","comp":"Claustro"},"geometry":{"type":"Point","coordinates":[-71.21042,-33.68676]}},{"type":"Feature","properties":{"id":"00121_MH_13120","nombre":"Casa de la Cultura de Ñuñoa (Palacio Ossa)","categoria":"Monumento Histórico","tipo":"Inmueble","comuna":"Ñuñoa","raiz":null,"comp":"Casa y Parque"},"geometry":{"type":"Point","coordinates":[-70.587352,-33.456371]}},{"type":"Feature","properties":{"id":"00802_MH_13404","nombre":"Casa Esquina del ex Fundo Rangue","categoria":"Monumento Histórico","tipo":"Inmueble","comuna":"Paine","raiz":null,"comp":null},"geometry":{"type":"Point","coordinates":[-70.950689,-33.844514]}},{"type":"Feature","properties":{"id":"00651_MH_13404","nombre":"Iglesia del Tránsito de la Santísima Virgen María","categoria":"Monumento Histórico","tipo":"Inmueble","comuna":"Paine","raiz":null,"comp":null},"geometry":{"type":"Point","coordinates":[-70.671692,-33.773376]}},{"type":"Feature","properties":{"id":"00632_MH_13121","nombre":"Casa patronal  ex chacra Ochagavía","categoria":"Monumento Histórico","tipo":"Inmueble","comuna":"Pedro Aguirre Cerda","raiz":null,"comp":null},"geometry":{"type":"Point","coordinates":[-70.663615,-33.487549]}},{"type":"Feature","properties":{"id":"00536_MH_13122","nombre":"Casas y Parque de Peñalolén (Parque Arrieta)","categoria":"Monumento Histórico","tipo":"Inmueble","comuna":"Peñalolén","raiz":null,"comp":"Casas y Parque"},"geometry":{"type":"Point","coordinates":[-70.521373,-33.468434]}},{"type":"Feature","properties":{"id":"00065_MH_13202","nombre":"Casa y Parque del Llano de Pirque","categoria":"Monumento Histórico","tipo":"Inmueble","comuna":"Pirque","raiz":null,"comp":"Casa y Parque"},"geometry":{"type":"Point","coordinates":[-70.574482,-33.63449]}},{"type":"Feature","properties":{"id":"00150_MH_13123","nombre":"Iglesia Parroquial Nuestra Señora de La Divina Providencia con su casa parroquial y construcciones adyacentes","categoria":"Monumento Histórico","tipo":"Inmueble","comuna":"Providencia","raiz":"00149_MH_13123","comp":"Casa Parroquial y Construcciones adyacentes"},"geometry":{"type":"Point","coordinates":[-70.616556,-33.427564]}},{"type":"Feature","properties":{"id":"00151_MH_13123","nombre":"Mural de Pedro Lira","categoria":"Monumento Histórico","tipo":"Inmueble","comuna":"Providencia","raiz":null,"comp":null},"geometry":{"type":"Point","coordinates":[-70.606297,-33.420482]}},{"type":"Feature","properties":{"id":"00645_MH_13201","nombre":"Bodega de vinos Ex-Viña San Carlos (bodega y parque)","categoria":"Monumento Histórico","tipo":"Inmueble","comuna":"Puente Alto","raiz":null,"comp":null},"geometry":{"type":"Point","coordinates":[-70.57572,-33.598119]}},{"type":"Feature","properties":{"id":"00125_MH_13127","nombre":"Iglesia y Convento de la Recoleta Franciscana","categoria":"Monumento Histórico","tipo":"Inmueble","comuna":"Recoleta","raiz":null,"comp":"Iglesia"},"geometry":{"type":"Point","coordinates":[-70.647601,-33.430387]}},{"type":"Feature","properties":{"id":"00126_MH_13127","nombre":"Iglesia y Convento de la Recoleta Franciscana","categoria":"Monumento Histórico","tipo":"Inmueble","comuna":"Recoleta","raiz":"00125_MH_13127","comp":"Convento"},"geometry":{"type":"Point","coordinates":[-70.647867,-33.430211]}},{"type":"Feature","properties":{"id":"00138_MH_13127","nombre":"Iglesia y Convento Recoleta Dominica","categoria":"Monumento Histórico","tipo":"Inmueble","comuna":"Recoleta","raiz":null,"comp":"Iglesia"},"geometry":{"type":"Point","coordinates":[-70.644724,-33.423899]}},{"type":"Feature","properties":{"id":"00139_MH_13127","nombre":"Iglesia y Convento Recoleta Dominica","categoria":"Monumento Histórico","tipo":"Inmueble","comuna":"Recoleta","raiz":"00138_MH_13127","comp":"Convento"},"geometry":{"type":"Point","coordinates":[-70.644741,-33.424621]}},{"type":"Feature","properties":{"id":"00386_MH_13127","nombre":"Casa del Pilar de Esquina","categoria":"Monumento Histórico","tipo":"Inmueble","comuna":"Recoleta","raiz":null,"comp":null},"geometry":{"type":"Point","coordinates":[-70.64739,-33.43118]}},{"type":"Feature","properties":{"id":"00559_MH_13127","nombre":"Plazoleta de piedras tacitas","categoria":"Monumento Histórico","tipo":"Inmueble","comuna":"Recoleta","raiz":null,"comp":null},"geometry":{"type":"Point","coordinates":[-70.644434,-33.416512]}},{"type":"Feature","properties":{"id":"00623_MH_13127","nombre":"Iglesia Quinta Bella","categoria":"Monumento Histórico","tipo":"Inmueble","comuna":"Recoleta","raiz":null,"comp":null},"geometry":{"type":"Point","coordinates":[-70.641769,-33.402162]}},{"type":"Feature","properties":{"id":"00292_MH_13401","nombre":"Estación de Ferrocarriles de San Bernardo","categoria":"Monumento Histórico","tipo":"Inmueble","comuna":"San Bernardo","raiz":null,"comp":null},"geometry":{"type":"Point","coordinates":[-70.698026,-33.595249]}},{"type":"Feature","properties":{"id":"00541_MH_13203","nombre":"Construcciones existentes a lo largo del trazado del Ferrocarril de Puente Alto a El Volcán","categoria":"Monumento Histórico","tipo":"Inmueble","comuna":"San José de Maipo","raiz":null,"comp":"Estación de Ferrocarril La Obra"},"geometry":{"type":"Point","coordinates":[-70.486625,-33.592278]}},{"type":"Feature","properties":{"id":"00542_MH_13203","nombre":"Construcciones existentes a lo largo del trazado del Ferrocarril de Puente Alto a El Volcán","categoria":"Monumento Histórico","tipo":"Inmueble","comuna":"San José de Maipo","raiz":"00541_MH_13203","comp":"Estación de Ferrocarril El Canelo"},"geometry":{"type":"Point","coordinates":[-70.450315,-33.577102]}},{"type":"Feature","properties":{"id":"00543_MH_13203","nombre":"Construcciones existentes a lo largo del trazado del Ferrocarril de Puente Alto a El Volcán","categoria":"Monumento Histórico","tipo":"Inmueble","comuna":"San José de Maipo","raiz":"00541_MH_13203","comp":"Estación de Ferrocarril El Manzano"},"geometry":{"type":"Point","coordinates":[-70.392285,-33.586786]}},{"type":"Feature","properties":{"id":"00544_MH_13203","nombre":"Construcciones existentes a lo largo del trazado del Ferrocarril de Puente Alto a El Volcán","categoria":"Monumento Histórico","tipo":"Inmueble","comuna":"San José de Maipo","raiz":"00541_MH_13203","comp":"Estación de Ferrocarril San José"},"geometry":{"type":"Point","coordinates":[-70.353131,-33.635207]}},{"type":"Feature","properties":{"id":"00545_MH_13203","nombre":"Construcciones existentes a lo largo del trazado del Ferrocarril de Puente Alto a El Volcán","categoria":"Monumento Histórico","tipo":"Inmueble","comuna":"San José de Maipo","raiz":"00541_MH_13203","comp":"Estación Ferrocarril El Melocotón"},"geometry":{"type":"Point","coordinates":[-70.335934,-33.693299]}},{"type":"Feature","properties":{"id":"00546_MH_13203","nombre":"Construcciones existentes a lo largo del trazado del Ferrocarril de Puente Alto a El Volcán","categoria":"Monumento Histórico","tipo":"Inmueble","comuna":"San José de Maipo","raiz":"00541_MH_13203","comp":"Estación de Ferrocarril San Alfonso"},"geometry":{"type":"Point","coordinates":[-70.317935,-33.73199]}},{"type":"Feature","properties":{"id":"00547_MH_13203","nombre":"Construcciones existentes a lo largo del trazado del Ferrocarril de Puente Alto a El Volcán","categoria":"Monumento Histórico","tipo":"Inmueble","comuna":"San José de Maipo","raiz":"00541_MH_13203","comp":"Estación de Ferrocarril El Romeral"},"geometry":{"type":"Point","coordinates":[-70.220682,-33.793319]}},{"type":"Feature","properties":{"id":"00548_MH_13203","nombre":"Construcciones existentes a lo largo del trazado del Ferrocarril de Puente Alto a El Volcán","categoria":"Monumento Histórico","tipo":"Inmueble","comuna":"San José de Maipo","raiz":"00541_MH_13203","comp":"Puente ferroviario el Jaboncillo"},"geometry":{"type":"Point","coordinates":[-70.282133,-33.743833]}},{"type":"Feature","properties":{"id":"00549_MH_13203","nombre":"Construcciones existentes a lo largo del trazado del Ferrocarril de Puente Alto a El Volcán","categoria":"Monumento Histórico","tipo":"Inmueble","comuna":"San José de Maipo","raiz":"00541_MH_13203","comp":"Puente Ferroviario sobre Río Colorado"},"geometry":{"type":"Point","coordinates":[-70.373198,-33.595312]}},{"type":"Feature","properties":{"id":"00550_MH_13203","nombre":"Construcciones existentes a lo largo del trazado del Ferrocarril de Puente Alto a El Volcán","categoria":"Monumento Histórico","tipo":"Inmueble","comuna":"San José de Maipo","raiz":"00541_MH_13203","comp":"Puente Ferrocarril sobre Estero El Melocotón"},"geometry":{"type":"Point","coordinates":[-70.336054,-33.69217]}},{"type":"Feature","properties":{"id":"00551_MH_13203","nombre":"Construcciones existentes a lo largo del trazado del Ferrocarril de Puente Alto a El Volcán","categoria":"Monumento Histórico","tipo":"Inmueble","comuna":"San José de Maipo","raiz":"00541_MH_13203","comp":"Túnel Tinoco"},"geometry":{"type":"Point","coordinates":[-70.288804,-33.742994]}},{"type":"Feature","properties":{"id":"00552_MH_13203","nombre":"Construcciones existentes a lo largo del trazado del Ferrocarril de Puente Alto a El Volcán","categoria":"Monumento Histórico","tipo":"Inmueble","comuna":"San José de Maipo","raiz":"00541_MH_13203","comp":"Estación de Ferrocarril San Gabriel"},"geometry":{"type":"Point","coordinates":[-70.240003,-33.782496]}},{"type":"Feature","properties":{"id":"00574_MH_13203","nombre":"Iglesia de San José de Maipo y su casa parroquial","categoria":"Monumento Histórico","tipo":"Inmueble","comuna":"San José de Maipo","raiz":null,"comp":"Iglesia"},"geometry":{"type":"Point","coordinates":[-70.352383,-33.639879]}},{"type":"Feature","properties":{"id":"00575_MH_13203","nombre":"Iglesia de San José de Maipo y su casa parroquial","categoria":"Monumento Histórico","tipo":"Inmueble","comuna":"San José de Maipo","raiz":"00574_MH_13203","comp":"Casa parroquial"},"geometry":{"type":"Point","coordinates":[-70.352433,-33.6396]}},{"type":"Feature","properties":{"id":"00659_MH_13203","nombre":"Capilla y Casa del Ex Fundo El Manzano","categoria":"Monumento Histórico","tipo":"Inmueble","comuna":"San José de Maipo","raiz":null,"comp":"Capilla"},"geometry":{"type":"Point","coordinates":[-70.390091,-33.587424]}},{"type":"Feature","properties":{"id":"00660_MH_13203","nombre":"Capilla y Casa del Ex Fundo El Manzano","categoria":"Monumento Histórico","tipo":"Inmueble","comuna":"San José de Maipo","raiz":"00659_MH_13203","comp":"Casa"},"geometry":{"type":"Point","coordinates":[-70.38985,-33.587319]}},{"type":"Feature","properties":{"id":"00030_MH_13101","nombre":"Iglesia y Convento de San Francisco","categoria":"Monumento Histórico","tipo":"Inmueble","comuna":"Santiago","raiz":"00029_MH_13101","comp":"Convento"},"geometry":{"type":"Point","coordinates":[-70.647578,-33.443873]}},{"type":"Feature","properties":{"id":"00059_MH_13101","nombre":"Palacio de la Real Audiencia y Cajas Reales","categoria":"Monumento Histórico","tipo":"Inmueble","comuna":"Santiago","raiz":null,"comp":null},"geometry":{"type":"Point","coordinates":[-70.6507,-33.437031]}},{"type":"Feature","properties":{"id":"00062_MH_13101","nombre":"Iglesia Santa Ana","categoria":"Monumento Histórico","tipo":"Inmueble","comuna":"Santiago","raiz":null,"comp":"Iglesia, Plazoleta"},"geometry":{"type":"Point","coordinates":[-70.658613,-33.437826]}},{"type":"Feature","properties":{"id":"00063_MH_13101","nombre":"Posada del Corregidor","categoria":"Monumento Histórico","tipo":"Inmueble","comuna":"Santiago","raiz":null,"comp":null},"geometry":{"type":"Point","coordinates":[-70.648125,-33.434559]}},{"type":"Feature","properties":{"id":"00109_MH_13101","nombre":"Conjunto de tres propiedades que dan a la Plazoleta Patricio Mekis (casa Josefina Subercaseaux)","categoria":"Monumento Histórico","tipo":"Inmueble","comuna":"Santiago","raiz":null,"comp":"Casa Josefina Subercaseaux, Calle Agustinas 719"},"geometry":{"type":"Point","coordinates":[-70.64715,-33.440065]}},{"type":"Feature","properties":{"id":"00110_MH_13101","nombre":"Conjunto de tres propiedades que dan a la Plazoleta Patricio Mekis (casa Don Francisco Subercaseaux)","categoria":"Monumento Histórico","tipo":"Inmueble","comuna":"Santiago","raiz":"00109_MH_13101","comp":"Casa Don Francisco Subercaseaux calle Agustinas 735"},"geometry":{"type":"Point","coordinates":[-70.647309,-33.440076]}},{"type":"Feature","properties":{"id":"00111_MH_13101","nombre":"Conjunto de tres propiedades que dan a la Plazoleta Patricio Mekis (casa Julio Subercaseaux)","categoria":"Monumento Histórico","tipo":"Inmueble","comuna":"Santiago","raiz":"00109_MH_13101","comp":"Calle Agustinas 741"},"geometry":{"type":"Point","coordinates":[-70.647471,-33.4401]}},{"type":"Feature","properties":{"id":"00112_MH_13101","nombre":"Plazoleta Patricio Mekis y conjunto de elementos y espacios arquitectónicos que enfrentan dichos inmuebles","categoria":"Monumento Histórico","tipo":"Inmueble","comuna":"Santiago","raiz":null,"comp":"Piletas"},"geometry":{"type":"Point","coordinates":[-70.647471,-33.440407]}},{"type":"Feature","properties":{"id":"00113_MH_13101","nombre":"Plazoleta Patricio Mekis y conjunto de elementos y espacios arquitectónicos que enfrentan dichos inmuebles","categoria":"Monumento Histórico","tipo":"Inmueble","comuna":"Santiago","raiz":"00112_MH_13101","comp":"Kiosko"},"geometry":{"type":"Point","coordinates":[-70.647297,-33.440436]}},{"type":"Feature","properties":{"id":"00114_MH_13101","nombre":"Plazoleta Patricio Mekis y conjunto de elementos y espacios arquitectónicos que enfrentan dichos inmuebles","categoria":"Monumento Histórico","tipo":"Inmueble","comuna":"Santiago","raiz":"00112_MH_13101","comp":"Muros"},"geometry":{"type":"Point","coordinates":[-70.647501,-33.440364]}},{"type":"Feature","properties":{"id":"00115_MH_13101","nombre":"Plazoleta Patricio Mekis y conjunto de elementos y espacios arquitectónicos que enfrentan dichos inmuebles","categoria":"Monumento Histórico","tipo":"Inmueble","comuna":"Santiago","raiz":"00112_MH_13101","comp":"Portones"},"geometry":{"type":"Point","coordinates":[-70.647376,-33.440345]}},{"type":"Feature","properties":{"id":"00122_MH_13101","nombre":"Palacio de La Alhambra","categoria":"Monumento Histórico","tipo":"Inmueble","comuna":"Santiago","raiz":null,"comp":null},"geometry":{"type":"Point","coordinates":[-70.655987,-33.439286]}},{"type":"Feature","properties":{"id":"00143_MH_13101","nombre":"Teatro Municipal de Santiago","categoria":"Monumento Histórico","tipo":"Inmueble","comuna":"Santiago","raiz":null,"comp":null},"geometry":{"type":"Point","coordinates":[-70.647505,-33.441131]}},{"type":"Feature","properties":{"id":"00145_MH_13101","nombre":"Palacio Pereira","categoria":"Monumento Histórico","tipo":"Inmueble","comuna":"Santiago","raiz":null,"comp":null},"geometry":{"type":"Point","coordinates":[-70.658171,-33.440238]}},{"type":"Feature","properties":{"id":"00189_MH_13101","nombre":"Intendencia de Santiago (Ex edificio del Diario Ilustrado)","categoria":"Monumento Histórico","tipo":"Inmueble","comuna":"Santiago","raiz":null,"comp":null},"geometry":{"type":"Point","coordinates":[-70.653013,-33.442341]}},{"type":"Feature","properties":{"id":"00191_MH_13101","nombre":"Municipalidad de Santiago (Edificio Consistorial Santiago)","categoria":"Monumento Histórico","tipo":"Inmueble","comuna":"Santiago","raiz":null,"comp":null},"geometry":{"type":"Point","coordinates":[-70.650405,-33.437051]}},{"type":"Feature","properties":{"id":"00200_MH_13101","nombre":"Iglesia de La Merced y parte del Convento","categoria":"Monumento Histórico","tipo":"Inmueble","comuna":"Santiago","raiz":null,"comp":"Iglesia"},"geometry":{"type":"Point","coordinates":[-70.646545,-33.438223]}},{"type":"Feature","properties":{"id":"00201_MH_13101","nombre":"Iglesia de La Merced y parte del Convento","categoria":"Monumento Histórico","tipo":"Inmueble","comuna":"Santiago","raiz":"00200_MH_13101","comp":"Convento"},"geometry":{"type":"Point","coordinates":[-70.646769,-33.438496]}},{"type":"Feature","properties":{"id":"00212_MH_13101","nombre":"Iglesia de San Isidro Labrador","categoria":"Monumento Histórico","tipo":"Inmueble","comuna":"Santiago","raiz":null,"comp":null},"geometry":{"type":"Point","coordinates":[-70.643046,-33.449302]}},{"type":"Feature","properties":{"id":"00213_MH_13101","nombre":"Iglesia de Las Agustinas","categoria":"Monumento Histórico","tipo":"Inmueble","comuna":"Santiago","raiz":null,"comp":"Iglesia y la construcción anexa que es parte del convento"},"geometry":{"type":"Point","coordinates":[-70.651331,-33.442207]}},{"type":"Feature","properties":{"id":"00214_MH_13101","nombre":"Basílica de El Salvador","categoria":"Monumento Histórico","tipo":"Inmueble","comuna":"Santiago","raiz":null,"comp":null},"geometry":{"type":"Point","coordinates":[-70.661794,-33.441359]}},{"type":"Feature","properties":{"id":"00269_MH_13101","nombre":"Palacio Cousiño y Jardines","categoria":"Monumento Histórico","tipo":"Inmueble","comuna":"Santiago","raiz":null,"comp":"Palacio y jardines"},"geometry":{"type":"Point","coordinates":[-70.656653,-33.452234]}},{"type":"Feature","properties":{"id":"00270_MH_13101","nombre":"Iglesia de San Agustín","categoria":"Monumento Histórico","tipo":"Inmueble","comuna":"Santiago","raiz":null,"comp":null},"geometry":{"type":"Point","coordinates":[-70.649082,-33.440875]}},{"type":"Feature","properties":{"id":"00290_MH_13101","nombre":"Edificio del Banco de Santiago (ex Hotel Mundial)","categoria":"Monumento Histórico","tipo":"Inmueble","comuna":"Santiago","raiz":null,"comp":null},"geometry":{"type":"Point","coordinates":[-70.651621,-33.442142]}},{"type":"Feature","properties":{"id":"00331_MH_13101","nombre":"Iglesia de la Veracruz y casas contiguas a ambos lados de la iglesia","categoria":"Monumento Histórico","tipo":"Inmueble","comuna":"Santiago","raiz":null,"comp":"Iglesia"},"geometry":{"type":"Point","coordinates":[-70.641307,-33.43874]}},{"type":"Feature","properties":{"id":"00332_MH_13101","nombre":"Iglesia de la Veracruz y casas contiguas a ambos lados de la iglesia","categoria":"Monumento Histórico","tipo":"Inmueble","comuna":"Santiago","raiz":"00331_MH_13101","comp":"Casa contigua 1"},"geometry":{"type":"Point","coordinates":[-70.641219,-33.438654]}},{"type":"Feature","properties":{"id":"00333_MH_13101","nombre":"Iglesia de la Veracruz y casas contiguas a ambos lados de la iglesia","categoria":"Monumento Histórico","tipo":"Inmueble","comuna":"Santiago","raiz":"00331_MH_13101","comp":"Casa contigua 2"},"geometry":{"type":"Point","coordinates":[-70.641309,-33.438913]}},{"type":"Feature","properties":{"id":"00334_MH_13101","nombre":"Ex Casa Rivas, conocida también como la antigua Ferretería Montero","categoria":"Monumento Histórico","tipo":"Inmueble","comuna":"Santiago","raiz":null,"comp":null},"geometry":{"type":"Point","coordinates":[-70.657227,-33.444948]}},{"type":"Feature","properties":{"id":"00372_MH_13101","nombre":"Cerro Santa Lucía","categoria":"Monumento Histórico","tipo":"Inmueble","comuna":"Santiago","raiz":null,"comp":null},"geometry":{"type":"Point","coordinates":[-70.643381,-33.439327]}},{"type":"Feature","properties":{"id":"00412_MH_13101","nombre":"Iglesia del Santísimo Sacramento","categoria":"Monumento Histórico","tipo":"Inmueble","comuna":"Santiago","raiz":null,"comp":null},"geometry":{"type":"Point","coordinates":[-70.638545,-33.45773]}},{"type":"Feature","properties":{"id":"00413_MH_13101","nombre":"Restos del Puente Cal y Canto","categoria":"Monumento Histórico","tipo":"Inmueble","comuna":"Santiago","raiz":null,"comp":null},"geometry":{"type":"Point","coordinates":[-70.651601,-33.432697]}},{"type":"Feature","properties":{"id":"00430_MH_13101","nombre":"Basílica Corazón de María","categoria":"Monumento Histórico","tipo":"Inmueble","comuna":"Santiago","raiz":null,"comp":null},"geometry":{"type":"Point","coordinates":[-70.651104,-33.455482]}},{"type":"Feature","properties":{"id":"00476_MH_13101","nombre":"Teatro Carrera","categoria":"Monumento Histórico","tipo":"Inmueble","comuna":"Santiago","raiz":null,"comp":null},"geometry":{"type":"Point","coordinates":[-70.665851,-33.446947]}},{"type":"Feature","properties":{"id":"00515_MH_13101","nombre":"Antigua  Escuela Militar","categoria":"Monumento Histórico","tipo":"Inmueble","comuna":"Santiago","raiz":null,"comp":null},"geometry":{"type":"Point","coordinates":[-70.656214,-33.45704]}},{"type":"Feature","properties":{"id":"00540_MH_13101","nombre":"Basílica Los Sacramentinos","categoria":"Monumento Histórico","tipo":"Inmueble","comuna":"Santiago","raiz":null,"comp":"Templo, construcciones anexas, claustro y área verde de uso público que lo rodea"},"geometry":{"type":"Point","coordinates":[-70.649204,-33.451433]}},{"type":"Feature","properties":{"id":"00556_MH_13101","nombre":"Iglesia de San Lázaro","categoria":"Monumento Histórico","tipo":"Inmueble","comuna":"Santiago","raiz":null,"comp":null},"geometry":{"type":"Point","coordinates":[-70.66077,-33.452195]}},{"type":"Feature","properties":{"id":"00624_MH_13101","nombre":"Palacio Matte","categoria":"Monumento Histórico","tipo":"Inmueble","comuna":"Santiago","raiz":null,"comp":null},"geometry":{"type":"Point","coordinates":[-70.656907,-33.439]}},{"type":"Feature","properties":{"id":"00640_MH_13101","nombre":"Palacio Bruna","categoria":"Monumento Histórico","tipo":"Inmueble","comuna":"Santiago","raiz":null,"comp":null},"geometry":{"type":"Point","coordinates":[-70.639233,-33.437236]}},{"type":"Feature","properties":{"id":"00681_MH_13101","nombre":"Casa de Los Diez","categoria":"Monumento Histórico","tipo":"Inmueble","comuna":"Santiago","raiz":null,"comp":null},"geometry":{"type":"Point","coordinates":[-70.645493,-33.446173]}},{"type":"Feature","properties":{"id":"00649_MH_13601","nombre":"Hornos de Lonquén","categoria":"Monumento Histórico","tipo":"Inmueble","comuna":"Talagante","raiz":null,"comp":null},"geometry":{"type":"Point","coordinates":[-70.823285,-33.704106]}},{"type":"Feature","properties":{"id":"00152_MH_13303","nombre":"Iglesia de Tiltil","categoria":"Monumento Histórico","tipo":"Inmueble","comuna":"Tiltil","raiz":null,"comp":null},"geometry":{"type":"Point","coordinates":[-70.91842,-33.090176]}},{"type":"Feature","properties":{"id":"00477_MH_13303","nombre":"Casas Patronales de la Ex-Hacienda Polpaico","categoria":"Monumento Histórico","tipo":"Inmueble","comuna":"Tiltil","raiz":null,"comp":"Conjunto de casas y Parque"},"geometry":{"type":"Point","coordinates":[-70.888899,-33.150796]}},{"type":"Feature","properties":{"id":"00295_MH_13132","nombre":"Casas de La Chacra Manquehue (Lo Gallo)","categoria":"Monumento Histórico","tipo":"Inmueble","comuna":"Vitacura","raiz":null,"comp":null},"geometry":{"type":"Point","coordinates":[-70.553922,-33.382569]}},{"type":"Feature","properties":{"id":"00373_MH_13132","nombre":"Casa de Lo Matta","categoria":"Monumento Histórico","tipo":"Inmueble","comuna":"Vitacura","raiz":null,"comp":"Casa y Terrenos adyacentes"},"geometry":{"type":"Point","coordinates":[-70.544346,-33.387841]}},{"type":"Feature","properties":{"id":"01223_MH_13401","nombre":"Edificios de la Maestranza San Bernardo","categoria":"Monumento Histórico","tipo":"Inmueble","comuna":"San Bernardo","raiz":"01222_MH_13401","comp":"Taller de Herrería"},"geometry":{"type":"Point","coordinates":[-70.693696,-33.607189]}},{"type":"Feature","properties":{"id":"01224_MH_13401","nombre":"Edificios de la Maestranza San Bernardo","categoria":"Monumento Histórico","tipo":"Inmueble","comuna":"San Bernardo","raiz":"01222_MH_13401","comp":"Taller de Calderería"},"geometry":{"type":"Point","coordinates":[-70.692983,-33.607264]}},{"type":"Feature","properties":{"id":"01225_MH_13401","nombre":"Edificios de la Maestranza San Bernardo","categoria":"Monumento Histórico","tipo":"Inmueble","comuna":"San Bernardo","raiz":"01222_MH_13401","comp":"Tornamesa de máquinas del ferrocarril"},"geometry":{"type":"Point","coordinates":[-70.692901,-33.605405]}},{"type":"Feature","properties":{"id":"01226_MH_13401","nombre":"Edificios de la Maestranza San Bernardo","categoria":"Monumento Histórico","tipo":"Inmueble","comuna":"San Bernardo","raiz":"01222_MH_13401","comp":"Portería Principal de acceso"},"geometry":{"type":"Point","coordinates":[-70.697093,-33.603867]}},{"type":"Feature","properties":{"id":"00043_MH_13101","nombre":"Casa del Presidente Manuel Montt","categoria":"Monumento Histórico","tipo":"Inmueble","comuna":"Santiago","raiz":null,"comp":null},"geometry":{"type":"Point","coordinates":[-70.647504,-33.438264]}},{"type":"Feature","properties":{"id":"00561_MH_13401","nombre":"Casa de calle Covadonga Nº 237","categoria":"Monumento Histórico","tipo":"Inmueble","comuna":"San Bernardo","raiz":null,"comp":null},"geometry":{"type":"Point","coordinates":[-70.701137,-33.595896]}},{"type":"Feature","properties":{"id":"00146_MH_13101","nombre":"Palacio de la Ex-Nunciatura Apostólica","categoria":"Monumento Histórico","tipo":"Inmueble","comuna":"Santiago","raiz":null,"comp":null},"geometry":{"type":"Point","coordinates":[-70.659029,-33.440308]}},{"type":"Feature","properties":{"id":"01505_MH_13130","nombre":"Mural Fresia lanzando a su hijo a los pies de Caupolicán de la ex Escuela Rebeca","categoria":"Monumento Histórico","tipo":"Inmueble","comuna":"San Miguel","raiz":"01504_MH_13130","comp":"Mural \"Fresia lanzando a su hijo a los pies de Caupolicán\" de la ex Escuela Rebeca Catalán Vargas."},"geometry":{"type":"Point","coordinates":[-70.652533,-33.514008]}},{"type":"Feature","properties":{"id":"01506_MH_13130","nombre":"Mural La ronda de la ex Escuela Rebeca","categoria":"Monumento Histórico","tipo":"Inmueble","comuna":"San Miguel","raiz":"01504_MH_13130","comp":"Mural \"La ronda\" de la ex Escuela Rebeca Catalán Vargas."},"geometry":{"type":"Point","coordinates":[-70.652455,-33.513781]}},{"type":"Feature","properties":{"id":"01507_MH_13130","nombre":"Mural Homenaje a Gabriela Mistral y los trabajadores del salitre de la ex Escuela Rebeca","categoria":"Monumento Histórico","tipo":"Inmueble","comuna":"San Miguel","raiz":"01504_MH_13130","comp":"Mural \"Homenaje a Gabriela Mistral y los trabajadores del salitre\" de la ex Escuela Rebeca Catalán Vargas."},"geometry":{"type":"Point","coordinates":[-70.65251,-33.513951]}},{"type":"Feature","properties":{"id":"01508_MH_13130","nombre":"Mural Los trabajadores del campo de la ex Escuela Rebeca","categoria":"Monumento Histórico","tipo":"Inmueble","comuna":"San Miguel","raiz":"01504_MH_13130","comp":"Mural \"Los trabajadores del campo\" de la ex Escuela Rebeca Catalán Vargas."},"geometry":{"type":"Point","coordinates":[-70.652551,-33.514084]}},{"type":"Feature","properties":{"id":"01516_MH_13127","nombre":"Teatro Grez y Lavandería del Instituto Psiquiátrico Dr. José Horwitz","categoria":"Monumento Histórico","tipo":"Inmueble","comuna":"Recoleta","raiz":"01515_MH_13127","comp":"Lavandería del Institulo Psiquiátrico Dr. José Horwitz"},"geometry":{"type":"Point","coordinates":[-70.648788,-33.422645]}},{"type":"Feature","properties":{"id":"00285_ZT_13114","nombre":"Cerro San Benito de los  Piques","categoria":"Zona Típica o Pintoresca","tipo":"Inmueble","comuna":"Las Condes","raiz":null,"comp":null},"geometry":{"type":"Point","coordinates":[-70.515043,-33.385452]}},{"type":"Feature","properties":{"id":"00340_ZT_13114","nombre":"Parque Municipal de Los Dominicos","categoria":"Zona Típica o Pintoresca","tipo":"Inmueble","comuna":"Las Condes","raiz":null,"comp":null},"geometry":{"type":"Point","coordinates":[-70.543427,-33.408046]}},{"type":"Feature","properties":{"id":"00803_ZT_13404","nombre":"Iglesia de ex Fundo Rangue","categoria":"Zona Típica o Pintoresca","tipo":"Inmueble","comuna":"Paine","raiz":null,"comp":null},"geometry":{"type":"Point","coordinates":[-70.947674,-33.847374]}},{"type":"Feature","properties":{"id":"00518_ZT_13127","nombre":"Cerro Blanco","categoria":"Zona Típica o Pintoresca","tipo":"Inmueble","comuna":"Recoleta","raiz":null,"comp":null},"geometry":{"type":"Point","coordinates":[-70.646336,-33.419248]}},{"type":"Feature","properties":{"id":"00329_ZT_13101","nombre":"Calle Dieciocho","categoria":"Zona Típica o Pintoresca","tipo":"Inmueble","comuna":"Santiago","raiz":null,"comp":null},"geometry":{"type":"Point","coordinates":[-70.657912,-33.44827]}},{"type":"Feature","properties":{"id":"00470_ZT_13101","nombre":"Sector calle Enrique Concha y Toro","categoria":"Zona Típica o Pintoresca","tipo":"Inmueble","comuna":"Santiago","raiz":null,"comp":null},"geometry":{"type":"Point","coordinates":[-70.666163,-33.446128]}},{"type":"Feature","properties":{"id":"00582_ZT_13101","nombre":"Sector Casonas Av. República","categoria":"Zona Típica o Pintoresca","tipo":"Inmueble","comuna":"Santiago","raiz":null,"comp":null},"geometry":{"type":"Point","coordinates":[-70.667317,-33.453378]}},{"type":"Feature","properties":{"id":"00583_ZT_13101","nombre":"Sector Pasaje República - General García","categoria":"Zona Típica o Pintoresca","tipo":"Inmueble","comuna":"Santiago","raiz":null,"comp":null},"geometry":{"type":"Point","coordinates":[-70.667414,-33.448663]}},{"type":"Feature","properties":{"id":"00584_ZT_13101","nombre":"Conjunto Virginia Opazo","categoria":"Zona Típica o Pintoresca","tipo":"Inmueble","comuna":"Santiago","raiz":null,"comp":null},"geometry":{"type":"Point","coordinates":[-70.669122,-33.449325]}},{"type":"Feature","properties":{"id":"00123_SN_13115","nombre":"Fundo Yerba Loca","categoria":"Santuario de la Naturaleza","tipo":"Inmueble","comuna":"Lo Barnechea","raiz":null,"comp":null},"geometry":{"type":"Point","coordinates":[-70.304362,-33.282423]}},{"type":"Feature","properties":{"id":"00120_SN_13115","nombre":"Predio Los Nogales","categoria":"Santuario de la Naturaleza","tipo":"Inmueble","comuna":"Lo Barnechea","raiz":null,"comp":null},"geometry":{"type":"Point","coordinates":[-70.384747,-33.22809]}},{"type":"Feature","properties":{"id":"01036_SN_13202","nombre":"Torcazas de Pirque","categoria":"Santuario de la Naturaleza","tipo":"Inmueble","comuna":"Pirque","raiz":null,"comp":null},"geometry":{"type":"Point","coordinates":[-70.475477,-33.692748]}},{"type":"Feature","properties":{"id":"00639_SN_13203","nombre":"Predio Cascada de Las Ánimas","categoria":"Santuario de la Naturaleza","tipo":"Inmueble","comuna":"San José de Maipo","raiz":null,"comp":null},"geometry":{"type":"Point","coordinates":[-70.315797,-33.737]}},{"type":"Feature","properties":{"id":"01040_MH_13106","nombre":"Maestranza de Ferrocarriles San Eugenio y edificaciones anexas","categoria":"Monumento Histórico","tipo":"Inmueble","comuna":"Estación Central","raiz":null,"comp":"Casa de Máquinas N° 1"},"geometry":{"type":"Point","coordinates":[-70.679979,-33.472322]}},{"type":"Feature","properties":{"id":"00181_ZT_13101","nombre":"Parque Quinta Normal","categoria":"Zona Típica o Pintoresca","tipo":"Inmueble","comuna":"Santiago","raiz":null,"comp":null},"geometry":{"type":"Point","coordinates":[-70.683908,-33.441572]}},{"type":"Feature","properties":{"id":"00328_ZT_13502","nombre":"Pueblo Villa Alhué","categoria":"Zona Típica o Pintoresca","tipo":"Inmueble","comuna":"Alhué","raiz":null,"comp":null},"geometry":{"type":"Point","coordinates":[-71.099165,-34.032281]}},{"type":"Feature","properties":{"id":"01044_MH_13106","nombre":"Maestranza de Ferrocarriles San Eugenio y edificaciones anexas","categoria":"Monumento Histórico","tipo":"Inmueble","comuna":"Estación Central","raiz":"01040_MH_13106","comp":"Taller"},"geometry":{"type":"Point","coordinates":[-70.675977,-33.47548]}},{"type":"Feature","properties":{"id":"01045_MH_13106","nombre":"Maestranza de Ferrocarriles San Eugenio y edificaciones anexas","categoria":"Monumento Histórico","tipo":"Inmueble","comuna":"Estación Central","raiz":"01040_MH_13106","comp":"Bodega Sur"},"geometry":{"type":"Point","coordinates":[-70.67596,-33.475965]}},{"type":"Feature","properties":{"id":"01047_MH_13106","nombre":"Maestranza de Ferrocarriles San Eugenio y edificaciones anexas","categoria":"Monumento Histórico","tipo":"Inmueble","comuna":"Estación Central","raiz":"01040_MH_13106","comp":"Bodega Norte"},"geometry":{"type":"Point","coordinates":[-70.676021,-33.474624]}},{"type":"Feature","properties":{"id":"00149_MH_13123","nombre":"Iglesia Parroquial Nuestra Señora de La Divina Providencia con su casa parroquial y construcciones adyacentes","categoria":"Monumento Histórico","tipo":"Inmueble","comuna":"Providencia","raiz":null,"comp":"Iglesia"},"geometry":{"type":"Point","coordinates":[-70.616319,-33.42757]}},{"type":"Feature","properties":{"id":"00312_ZT_13101","nombre":"Sector de las Calles Londres y París","categoria":"Zona Típica o Pintoresca","tipo":"Inmueble","comuna":"Santiago","raiz":null,"comp":null},"geometry":{"type":"Point","coordinates":[-70.648062,-33.444376]}},{"type":"Feature","properties":{"id":"00426_ZT_13101","nombre":"Plaza de Armas, Congreso Nacional y su entorno","categoria":"Zona Típica o Pintoresca","tipo":"Inmueble","comuna":"Santiago","raiz":null,"comp":null},"geometry":{"type":"Point","coordinates":[-70.65198,-33.43798]}},{"type":"Feature","properties":{"id":"01050_ZT_13101","nombre":"Barrio Cívico - Eje Bulnes - Parque Almagro","categoria":"Zona Típica o Pintoresca","tipo":"Inmueble","comuna":"Santiago","raiz":null,"comp":null},"geometry":{"type":"Point","coordinates":[-70.652115,-33.450408]}},{"type":"Feature","properties":{"id":"00496_ZT_13101","nombre":"Sector calle Nueva York, La Bolsa y Club de la Unión","categoria":"Zona Típica o Pintoresca","tipo":"Inmueble","comuna":"Santiago","raiz":null,"comp":null},"geometry":{"type":"Point","coordinates":[-70.65111,-33.443416]}},{"type":"Feature","properties":{"id":"01119_ZT_13101","nombre":"Sector que indica de los Barrios Yungay y Brasil de Santiago Poniente","categoria":"Zona Típica o Pintoresca","tipo":"Inmueble","comuna":"Santiago","raiz":null,"comp":null},"geometry":{"type":"Point","coordinates":[-70.670601,-33.441762]}},{"type":"Feature","properties":{"id":"01533_ZT_13101","nombre":"Barrio Matta Sur","categoria":"Zona Típica o Pintoresca","tipo":"Inmueble","comuna":"Santiago","raiz":null,"comp":null},"geometry":{"type":"Point","coordinates":[-70.638461,-33.460651]}},{"type":"Feature","properties":{"id":"00835_ZT_13101","nombre":"Sector Club Hípico y Parque O'Higgins","categoria":"Zona Típica o Pintoresca","tipo":"Inmueble","comuna":"Santiago","raiz":null,"comp":null},"geometry":{"type":"Point","coordinates":[-70.663831,-33.4635]}},{"type":"Feature","properties":{"id":"00833_MH_13101","nombre":"Edificios del Club Hípico","categoria":"Monumento Histórico","tipo":"Inmueble","comuna":"Santiago","raiz":"00832_MH_13101","comp":"Tribuna"},"geometry":{"type":"Point","coordinates":[-70.670467,-33.459332]}},{"type":"Feature","properties":{"id":"00834_MH_13101","nombre":"Edificios del Club Hípico","categoria":"Monumento Histórico","tipo":"Inmueble","comuna":"Santiago","raiz":"00832_MH_13101","comp":"Concha Acústica"},"geometry":{"type":"Point","coordinates":[-70.67005,-33.458605]}},{"type":"Feature","properties":{"id":"01222_MH_13401","nombre":"Edificios de la maestranza de San Bernardo","categoria":"Monumento Histórico","tipo":"Inmueble","comuna":"San Bernardo","raiz":null,"comp":"Taller Central o de Armaduría"},"geometry":{"type":"Point","coordinates":[-70.693408,-33.606301]}},{"type":"Feature","properties":{"id":"01504_MH_13130","nombre":"Mural Exaltación de los trabajadores de la ex Escuela Rebeca","categoria":"Monumento Histórico","tipo":"Inmueble","comuna":"San Miguel","raiz":null,"comp":"Mural \"Exaltación de los trabajadores\" de la ex Escuela Rebeca Catalán Vargas."},"geometry":{"type":"Point","coordinates":[-70.652682,-33.513969]}},{"type":"Feature","properties":{"id":"01515_MH_13127","nombre":"Teatro Grez y Lavandería del Instituto Psiquiátrico Dr. José Horwitz","categoria":"Monumento Histórico","tipo":"Inmueble","comuna":"Recoleta","raiz":null,"comp":"Teatro Grez"},"geometry":{"type":"Point","coordinates":[-70.648616,-33.422849]}},{"type":"Feature","properties":{"id":"01704_MH_13401","nombre":"Cuartel N°II de la Sección de Inteligencia de la Escuela de Infantería de San Bernardo","categoria":"Monumento Histórico","tipo":"Inmueble","comuna":"San Bernardo","raiz":"01702_MH_13401","comp":"La Loma de la Casa del Techo Rojo"},"geometry":{"type":"Point","coordinates":[-70.720897,-33.584065]}},{"type":"Feature","properties":{"id":"01702_MH_13401","nombre":"Cuartel N°II de la Sección de Inteligencia de la Escuela de Infantería de San Bernardo","categoria":"Monumento Histórico","tipo":"Inmueble","comuna":"San Bernardo","raiz":null,"comp":"Pórtico de Acceso"},"geometry":{"type":"Point","coordinates":[-70.717233,-33.594258]}},{"type":"Feature","properties":{"id":"00678_MH_13101","nombre":"Puente metálico sobre el río Mapocho, que enfrenta a la calle 21 de Mayo","categoria":"Monumento Histórico","tipo":"Inmueble","comuna":"Santiago","raiz":null,"comp":"Puente"},"geometry":{"type":"Point","coordinates":[-70.650367,-33.432499]}},{"type":"Feature","properties":{"id":"00832_MH_13101","nombre":"Edificios del Club Hípico","categoria":"Monumento Histórico","tipo":"Inmueble","comuna":"Santiago","raiz":null,"comp":"Galería"},"geometry":{"type":"Point","coordinates":[-70.670742,-33.460098]}},{"type":"Feature","properties":{"id":"01703_MH_13401","nombre":"Cuartel N°II de la Sección de Inteligencia de la Escuela de Infantería de San Bernardo","categoria":"Monumento Histórico","tipo":"Inmueble","comuna":"San Bernardo","raiz":"01702_MH_13401","comp":"La Escuelita"},"geometry":{"type":"Point","coordinates":[-70.715625,-33.588113]}},{"type":"Feature","properties":{"id":"01263_MH_13101","nombre":"Murales de Nemesio Antúnez","categoria":"Monumento Histórico","tipo":"Inmueble","comuna":"Santiago","raiz":"01261_MH_13101","comp":"Mural \"Quinchamalí\""},"geometry":{"type":"Point","coordinates":[-70.647952,-33.439188]}},{"type":"Feature","properties":{"id":"01272_MH_MT","nombre":"Segunda Cumbre del Parque Metropolitano de Santiago","categoria":"Monumento Histórico","tipo":"Inmueble","comuna":"Multiterritorial","raiz":"01239_MH_MT","comp":"Cúpula"},"geometry":{"type":"Point","coordinates":[-70.63231,-33.422084]}},{"type":"Feature","properties":{"id":"01239_MH_MT","nombre":"Segunda Cumbre del Parque Metropolitano de Santiago","categoria":"Monumento Histórico","tipo":"Inmueble","comuna":"Multiterritorial","raiz":null,"comp":"Observatorio Astrofísico (o telescopio) Manuel Foster Recabarren"},"geometry":{"type":"Point","coordinates":[-70.632411,-33.422145]}},{"type":"Feature","properties":{"id":"01273_MH_MT","nombre":"Segunda Cumbre del Parque Metropolitano de Santiago","categoria":"Monumento Histórico","tipo":"Inmueble","comuna":"Multiterritorial","raiz":"01239_MH_MT","comp":"Recinto del instrumento"},"geometry":{"type":"Point","coordinates":[-70.632247,-33.421978]}},{"type":"Feature","properties":{"id":"01276_MH_MT","nombre":"Segunda Cumbre del Parque Metropolitano de Santiago","categoria":"Monumento Histórico","tipo":"Inmueble","comuna":"Multiterritorial","raiz":"01239_MH_MT","comp":"Casa del cuidador"},"geometry":{"type":"Point","coordinates":[-70.632407,-33.422185]}},{"type":"Feature","properties":{"id":"01261_MH_13101","nombre":"Murales de Nemesio Antúnez","categoria":"Monumento Histórico","tipo":"Inmueble","comuna":"Santiago","raiz":null,"comp":"Mural \"Sol\""},"geometry":{"type":"Point","coordinates":[-70.653382,-33.439947]}},{"type":"Feature","properties":{"id":"01262_MH_13101","nombre":"Murales de Nemesio Antúnez","categoria":"Monumento Histórico","tipo":"Inmueble","comuna":"Santiago","raiz":"01261_MH_13101","comp":"Mural \"Luna\""},"geometry":{"type":"Point","coordinates":[-70.653377,-33.440107]}},{"type":"Feature","properties":{"id":"01264_MH_13101","nombre":"Mural Nemesio Antúnez","categoria":"Monumento Histórico","tipo":"Inmueble","comuna":"Santiago","raiz":"01261_MH_13101","comp":"Mural \"Terremoto\""},"geometry":{"type":"Point","coordinates":[-70.64954,-33.436721]}},{"type":"Feature","properties":{"id":"00795_SN_13303","nombre":"Sector del Cerro el Roble","categoria":"Santuario de la Naturaleza","tipo":"Inmueble","comuna":"Tiltil","raiz":null,"comp":null},"geometry":{"type":"Point","coordinates":[-71.008349,-32.99073]}},{"type":"Feature","properties":{"id":"01056_SN_13203","nombre":"Predios denominados San Francisco de Lagunillas y Quillayal","categoria":"Santuario de la Naturaleza","tipo":"Inmueble","comuna":"San José de Maipo","raiz":null,"comp":null},"geometry":{"type":"Point","coordinates":[-70.265801,-33.653212]}},{"type":"Feature","properties":{"id":"01569_SN_13119","nombre":"Quebrada de La Plata","categoria":"Santuario de la Naturaleza","tipo":"Inmueble","comuna":"Maipú","raiz":null,"comp":null},"geometry":{"type":"Point","coordinates":[-70.903488,-33.494619]}},{"type":"Feature","properties":{"id":"01356_SN_13502","nombre":"San Juan de Piche","categoria":"Santuario de la Naturaleza","tipo":"Inmueble","comuna":"Alhué","raiz":null,"comp":null},"geometry":{"type":"Point","coordinates":[-71.048529,-33.91572]}},{"type":"Feature","properties":{"id":"01551_SN_13404","nombre":"El Ajial","categoria":"Santuario de la Naturaleza","tipo":"Inmueble","comuna":"Paine","raiz":null,"comp":null},"geometry":{"type":"Point","coordinates":[-70.553134,-33.867968]}},{"type":"Feature","properties":{"id":"01330_SN_13501","nombre":"Horcón de Piedra","categoria":"Santuario de la Naturaleza","tipo":"Inmueble","comuna":"Melipilla","raiz":null,"comp":null},"geometry":{"type":"Point","coordinates":[-71.002941,-33.849158]}},{"type":"Feature","properties":{"id":"00686_ZT_13123","nombre":"Calle Viña del Mar","categoria":"Zona Típica o Pintoresca","tipo":"Inmueble","comuna":"Providencia","raiz":null,"comp":null},"geometry":{"type":"Point","coordinates":[-70.633301,-33.440492]}},{"type":"Feature","properties":{"id":"00673_ZT_13123","nombre":"Población León XIII","categoria":"Zona Típica o Pintoresca","tipo":"Inmueble","comuna":"Providencia","raiz":null,"comp":null},"geometry":{"type":"Point","coordinates":[-70.630112,-33.431453]}},{"type":"Feature","properties":{"id":"00618_ZT_13123","nombre":"Población William Noon","categoria":"Zona Típica o Pintoresca","tipo":"Inmueble","comuna":"Providencia","raiz":null,"comp":null},"geometry":{"type":"Point","coordinates":[-70.617025,-33.432755]}},{"type":"Feature","properties":{"id":"00875_ZT_13101","nombre":"Conjunto Residencial calle Serrano","categoria":"Zona Típica o Pintoresca","tipo":"Inmueble","comuna":"Santiago","raiz":null,"comp":null},"geometry":{"type":"Point","coordinates":[-70.646863,-33.456703]}},{"type":"Feature","properties":{"id":"00959_MH_13101","nombre":"Londres 38. Espacio de Memorias. Ex centro clandestino de detención, tortura, ejecución y desaparición forzada","categoria":"Monumento Histórico","tipo":"Inmueble","comuna":"Santiago","raiz":null,"comp":null},"geometry":{"type":"Point","coordinates":[-70.648026,-33.444339]}},{"type":"Feature","properties":{"id":"00783_ZT_13101","nombre":"Población Madrid","categoria":"Zona Típica o Pintoresca","tipo":"Inmueble","comuna":"Santiago","raiz":null,"comp":null},"geometry":{"type":"Point","coordinates":[-70.635463,-33.454912]}},{"type":"Feature","properties":{"id":"00816_ZT_13116","nombre":"Sector del Pueblo de Lo Espejo","categoria":"Zona Típica o Pintoresca","tipo":"Inmueble","comuna":"Lo Espejo","raiz":null,"comp":null},"geometry":{"type":"Point","coordinates":[-70.69258,-33.534374]}},{"type":"Feature","properties":{"id":"00531_ZT_13123","nombre":"Calle Keller","categoria":"Zona Típica o Pintoresca","tipo":"Inmueble","comuna":"Providencia","raiz":null,"comp":null},"geometry":{"type":"Point","coordinates":[-70.617255,-33.43652]}},{"type":"Feature","properties":{"id":"00792_ZT_13123","nombre":"Población Caja de Seguro Obrero","categoria":"Zona Típica o Pintoresca","tipo":"Inmueble","comuna":"Providencia","raiz":null,"comp":null},"geometry":{"type":"Point","coordinates":[-70.621523,-33.436059]}},{"type":"Feature","properties":{"id":"01156_ZT_13101","nombre":"Sector delimitado por Av. Viel, Av. Matta, Av. Rondizzoni y calle San Ignacio","categoria":"Zona Típica o Pintoresca","tipo":"Inmueble","comuna":"Santiago","raiz":null,"comp":null},"geometry":{"type":"Point","coordinates":[-70.655587,-33.465469]}},{"type":"Feature","properties":{"id":"00657_ZT_13108","nombre":"Población Los Castaños","categoria":"Zona Típica o Pintoresca","tipo":"Inmueble","comuna":"Independencia","raiz":null,"comp":null},"geometry":{"type":"Point","coordinates":[-70.662649,-33.411474]}},{"type":"Feature","properties":{"id":"01243_ZT_13120","nombre":"Conjunto Empart de Ñuñoa","categoria":"Zona Típica o Pintoresca","tipo":"Inmueble","comuna":"Ñuñoa","raiz":null,"comp":null},"geometry":{"type":"Point","coordinates":[-70.622427,-33.459902]}},{"type":"Feature","properties":{"id":"00808_ZT_13123","nombre":"Plaza Camilo Mori, Cité Constitución N° 135 y edificios adyacentes","categoria":"Zona Típica o Pintoresca","tipo":"Inmueble","comuna":"Providencia","raiz":null,"comp":null},"geometry":{"type":"Point","coordinates":[-70.63453,-33.432464]}},{"type":"Feature","properties":{"id":"01025_ZT_13120","nombre":"Población para Suboficiales de la Escuela de Aplicación de Caballería","categoria":"Zona Típica o Pintoresca","tipo":"Inmueble","comuna":"Ñuñoa","raiz":null,"comp":null},"geometry":{"type":"Point","coordinates":[-70.610734,-33.452667]}},{"type":"Feature","properties":{"id":"01088_ZT_13120","nombre":"Población Empleados Públicos y Periodistas Chile-España","categoria":"Zona Típica o Pintoresca","tipo":"Inmueble","comuna":"Ñuñoa","raiz":null,"comp":null},"geometry":{"type":"Point","coordinates":[-70.599259,-33.452245]}},{"type":"Feature","properties":{"id":"01090_ZT_13123","nombre":"Sector comprendido entre la calle Emilio Delporte, Avenida Manuel Montt, Avenida Santa Isabel y calle Miguel Claro","categoria":"Zona Típica o Pintoresca","tipo":"Inmueble","comuna":"Providencia","raiz":null,"comp":null},"geometry":{"type":"Point","coordinates":[-70.615921,-33.444595]}},{"type":"Feature","properties":{"id":"01270_ZT_13108","nombre":"Población Manuel Montt","categoria":"Zona Típica o Pintoresca","tipo":"Inmueble","comuna":"Independencia","raiz":null,"comp":null},"geometry":{"type":"Point","coordinates":[-70.666049,-33.425413]}},{"type":"Feature","properties":{"id":"00794_ZT_13101","nombre":"Lucrecia Valdés, Adriana Cousiño, Hurtado Rodríguez y calles aledañas","categoria":"Zona Típica o Pintoresca","tipo":"Inmueble","comuna":"Santiago","raiz":null,"comp":null},"geometry":{"type":"Point","coordinates":[-70.676982,-33.441845]}},{"type":"Feature","properties":{"id":"00690_ZT_13123","nombre":"Entorno Palacio Falabella","categoria":"Zona Típica o Pintoresca","tipo":"Inmueble","comuna":"Providencia","raiz":null,"comp":null},"geometry":{"type":"Point","coordinates":[-70.610399,-33.432376]}},{"type":"Feature","properties":{"id":"01483_ZT_13120","nombre":"Sector 1 de la Villa Frei","categoria":"Zona Típica o Pintoresca","tipo":"Inmueble","comuna":"Ñuñoa","raiz":null,"comp":null},"geometry":{"type":"Point","coordinates":[-70.581786,-33.456782]}},{"type":"Feature","properties":{"id":"01503_ZT_13101","nombre":"Barrio Huemúl","categoria":"Zona Típica o Pintoresca","tipo":"Inmueble","comuna":"Santiago","raiz":null,"comp":null},"geometry":{"type":"Point","coordinates":[-70.650498,-33.474587]}},{"type":"Feature","properties":{"id":"01518_ZT_13123","nombre":"Barrio Las Flores","categoria":"Zona Típica o Pintoresca","tipo":"Inmueble","comuna":"Providencia","raiz":null,"comp":null},"geometry":{"type":"Point","coordinates":[-70.5895,-33.433211]}},{"type":"Feature","properties":{"id":"01575_ZT_13120","nombre":"Conjunto Habitacional Villa Olímpica","categoria":"Zona Típica o Pintoresca","tipo":"Inmueble","comuna":"Ñuñoa","raiz":null,"comp":null},"geometry":{"type":"Point","coordinates":[-70.619979,-33.463619]}},{"type":"Feature","properties":{"id":"01676_ZT_13301","nombre":"Pueblo de las Canteras","categoria":"Zona Típica o Pintoresca","tipo":"Inmueble","comuna":"Colina","raiz":null,"comp":null},"geometry":{"type":"Point","coordinates":[-70.687742,-33.30523]}},{"type":"Feature","properties":{"id":"01708_ZT_13120","nombre":"Barrio Suárez Mujica","categoria":"Zona Típica o Pintoresca","tipo":"Inmueble","comuna":"Ñuñoa","raiz":null,"comp":null},"geometry":{"type":"Point","coordinates":[-70.61473,-33.458718]}},{"type":"Feature","properties":{"id":"01711_ZT_13108","nombre":"Las Poblaciones Obreras de la Plaza Chacabuco","categoria":"Zona Típica o Pintoresca","tipo":"Inmueble","comuna":"Independencia","raiz":null,"comp":null},"geometry":{"type":"Point","coordinates":[-70.657377,-33.407263]}},{"type":"Feature","properties":{"id":"01351_MH_13106","nombre":"Catedral Evangélica de Chile","categoria":"Monumento Histórico","tipo":"Inmueble","comuna":"Estación Central","raiz":null,"comp":null},"geometry":{"type":"Point","coordinates":[-70.685366,-33.453178]}},{"type":"Feature","properties":{"id":"00782_MH_13108","nombre":"Hospital San José","categoria":"Monumento Histórico","tipo":"Inmueble","comuna":"Independencia","raiz":null,"comp":null},"geometry":{"type":"Point","coordinates":[-70.653492,-33.414537]}},{"type":"Feature","properties":{"id":"01230_MH_13114","nombre":"Casa de Asturias N°400","categoria":"Monumento Histórico","tipo":"Inmueble","comuna":"Las Condes","raiz":null,"comp":null},"geometry":{"type":"Point","coordinates":[-70.583743,-33.418095]}},{"type":"Feature","properties":{"id":"00612_MH_13119","nombre":"Casa y Parque de la Quinta de Las Rosas de Maipú","categoria":"Monumento Histórico","tipo":"Inmueble","comuna":"Maipú","raiz":null,"comp":null},"geometry":{"type":"Point","coordinates":[-70.757728,-33.493203]}},{"type":"Feature","properties":{"id":"00527_MH_13119","nombre":"Cerro Primo de Rivera o Los Pajaritos","categoria":"Monumento Histórico","tipo":"Inmueble","comuna":"Maipú","raiz":null,"comp":null},"geometry":{"type":"Point","coordinates":[-70.755247,-33.494709]}},{"type":"Feature","properties":{"id":"00384_MH_13119","nombre":"Muros de La antigua Iglesia de Maipú","categoria":"Monumento Histórico","tipo":"Inmueble","comuna":"Maipú","raiz":null,"comp":null},"geometry":{"type":"Point","coordinates":[-70.765314,-33.511245]}},{"type":"Feature","properties":{"id":"01171_MH_13123","nombre":"Casa del Escritor","categoria":"Monumento Histórico","tipo":"Inmueble","comuna":"Providencia","raiz":null,"comp":null},"geometry":{"type":"Point","coordinates":[-70.633833,-33.439011]}},{"type":"Feature","properties":{"id":"00142_MH_13123","nombre":"Casa lo Contador","categoria":"Monumento Histórico","tipo":"Inmueble","comuna":"Providencia","raiz":null,"comp":null},"geometry":{"type":"Point","coordinates":[-70.617932,-33.419839]}},{"type":"Feature","properties":{"id":"01381_MH_13123","nombre":"Escuela de Derecho de la Universidad de Chile","categoria":"Monumento Histórico","tipo":"Inmueble","comuna":"Providencia","raiz":null,"comp":null},"geometry":{"type":"Point","coordinates":[-70.634915,-33.435308]}},{"type":"Feature","properties":{"id":"00672_MH_13123","nombre":"Iglesia Epifanía del Señor","categoria":"Monumento Histórico","tipo":"Inmueble","comuna":"Providencia","raiz":null,"comp":null},"geometry":{"type":"Point","coordinates":[-70.629295,-33.431594]}},{"type":"Feature","properties":{"id":"00577_MH_13123","nombre":"Museo Benjamín Vicuña Mackenna","categoria":"Monumento Histórico","tipo":"Inmueble","comuna":"Providencia","raiz":null,"comp":null},"geometry":{"type":"Point","coordinates":[-70.633599,-33.441156]}},{"type":"Feature","properties":{"id":"01377_MH_13201","nombre":"Puente colonial en el Canal San Carlos Viejo","categoria":"Monumento Histórico","tipo":"Inmueble","comuna":"Puente Alto","raiz":null,"comp":null},"geometry":{"type":"Point","coordinates":[-70.552722,-33.562255]}},{"type":"Feature","properties":{"id":"00259_MH_13125","nombre":"Casas de San Ignacio de Quilicura","categoria":"Monumento Histórico","tipo":"Inmueble","comuna":"Quilicura","raiz":null,"comp":"Casa y Parque que las precede"},"geometry":{"type":"Point","coordinates":[-70.694495,-33.341557]}},{"type":"Feature","properties":{"id":"01010_MH_13127","nombre":"Patio N°29, actual N° 162, del Cementerio General","categoria":"Monumento Histórico","tipo":"Inmueble","comuna":"Recoleta","raiz":null,"comp":null},"geometry":{"type":"Point","coordinates":[-70.648449,-33.408539]}},{"type":"Feature","properties":{"id":"00517_MH_13127","nombre":"Iglesia La  Viñita","categoria":"Monumento Histórico","tipo":"Inmueble","comuna":"Recoleta","raiz":null,"comp":null},"geometry":{"type":"Point","coordinates":[-70.645164,-33.421862]}},{"type":"Feature","properties":{"id":"00648_MH_13127","nombre":"Iglesia Parroquial Santa Filomena","categoria":"Monumento Histórico","tipo":"Inmueble","comuna":"Recoleta","raiz":null,"comp":null},"geometry":{"type":"Point","coordinates":[-70.643427,-33.429677]}},{"type":"Feature","properties":{"id":"01293_MH_13129","nombre":"Campo de Prisioneros Políticos Tres y Cuatro Álamos","categoria":"Monumento Histórico","tipo":"Inmueble","comuna":"San Joaquín","raiz":null,"comp":null},"geometry":{"type":"Point","coordinates":[-70.620121,-33.506194]}},{"type":"Feature","properties":{"id":"01241_MH_13505","nombre":"Iglesia de Loica","categoria":"Monumento Histórico","tipo":"Inmueble","comuna":"San Pedro","raiz":null,"comp":null},"geometry":{"type":"Point","coordinates":[-71.481461,-33.968661]}},{"type":"Feature","properties":{"id":"00913_MH_13203","nombre":"Aduana el Manzano","categoria":"Monumento Histórico","tipo":"Inmueble","comuna":"San José de Maipo","raiz":null,"comp":null},"geometry":{"type":"Point","coordinates":[-70.390353,-33.586692]}},{"type":"Feature","properties":{"id":"00908_MH_13203","nombre":"Casa de Salud de Mujeres Carolina Deursther","categoria":"Monumento Histórico","tipo":"Inmueble","comuna":"San José de Maipo","raiz":null,"comp":null},"geometry":{"type":"Point","coordinates":[-70.349932,-33.643806]}},{"type":"Feature","properties":{"id":"01271_MH_13101","nombre":"Asilo de Ancianos de la Congregación de las hermanitas de los pobres","categoria":"Monumento Histórico","tipo":"Inmueble","comuna":"Santiago","raiz":null,"comp":null},"geometry":{"type":"Point","coordinates":[-70.638105,-33.459577]}},{"type":"Feature","properties":{"id":"00289_MH_13101","nombre":"Bolsa de Comercio","categoria":"Monumento Histórico","tipo":"Inmueble","comuna":"Santiago","raiz":null,"comp":null},"geometry":{"type":"Point","coordinates":[-70.651575,-33.442748]}},{"type":"Feature","properties":{"id":"01048_MH_13101","nombre":"Calzada de la calle Antonio Ricaurte","categoria":"Monumento Histórico","tipo":"Inmueble","comuna":"Santiago","raiz":null,"comp":null},"geometry":{"type":"Point","coordinates":[-70.638471,-33.451212]}},{"type":"Feature","properties":{"id":"00140_MH_13101","nombre":"Casa Central de la Universidad de Chile","categoria":"Monumento Histórico","tipo":"Inmueble","comuna":"Santiago","raiz":null,"comp":null},"geometry":{"type":"Point","coordinates":[-70.650858,-33.444568]}},{"type":"Feature","properties":{"id":"00127_MH_13101","nombre":"Club de Septiembre (Casa Edwards)","categoria":"Monumento Histórico","tipo":"Inmueble","comuna":"Santiago","raiz":null,"comp":null},"geometry":{"type":"Point","coordinates":[-70.653827,-33.437289]}},{"type":"Feature","properties":{"id":"00914_MH_13101","nombre":"Consultorio Externo del Hospital San Juan de Dios","categoria":"Monumento Histórico","tipo":"Inmueble","comuna":"Santiago","raiz":null,"comp":null},"geometry":{"type":"Point","coordinates":[-70.680465,-33.44209]}},{"type":"Feature","properties":{"id":"01379_MH_13101","nombre":"Consultorio N°1 Doctor Ramón Corbalán Melgarejo","categoria":"Monumento Histórico","tipo":"Inmueble","comuna":"Santiago","raiz":null,"comp":null},"geometry":{"type":"Point","coordinates":[-70.652767,-33.455431]}},{"type":"Feature","properties":{"id":"00091_MH_13101","nombre":"Edificio Comercial Edwards","categoria":"Monumento Histórico","tipo":"Inmueble","comuna":"Santiago","raiz":null,"comp":null},"geometry":{"type":"Point","coordinates":[-70.649518,-33.438454]}},{"type":"Feature","properties":{"id":"00190_MH_13101","nombre":"Correo Central","categoria":"Monumento Histórico","tipo":"Inmueble","comuna":"Santiago","raiz":null,"comp":null},"geometry":{"type":"Point","coordinates":[-70.651098,-33.437002]}},{"type":"Feature","properties":{"id":"00327_MH_13101","nombre":"Edificio del Cuerpo de Bomberos de Santiago","categoria":"Monumento Histórico","tipo":"Inmueble","comuna":"Santiago","raiz":null,"comp":null},"geometry":{"type":"Point","coordinates":[-70.651048,-33.436463]}},{"type":"Feature","properties":{"id":"00516_MH_13101","nombre":"Ex Arsenales de Guerra","categoria":"Monumento Histórico","tipo":"Inmueble","comuna":"Santiago","raiz":null,"comp":"2 almacenes"},"geometry":{"type":"Point","coordinates":[-70.658369,-33.457014]}},{"type":"Feature","properties":{"id":"00184_MH_13101","nombre":"Edificio del Congreso Nacional","categoria":"Monumento Histórico","tipo":"Inmueble","comuna":"Santiago","raiz":null,"comp":"Edificio del ex Congreso y sus jardines"},"geometry":{"type":"Point","coordinates":[-70.653272,-33.438134]}},{"type":"Feature","properties":{"id":"01023_MH_13101","nombre":"Hotel Bristol","categoria":"Monumento Histórico","tipo":"Inmueble","comuna":"Santiago","raiz":null,"comp":null},"geometry":{"type":"Point","coordinates":[-70.653474,-33.432985]}},{"type":"Feature","properties":{"id":"01221_MH_13101","nombre":"Pabellón Valentín Errázuriz y otros pabellones del Hospital San Borja Arriarán","categoria":"Monumento Histórico","tipo":"Inmueble","comuna":"Santiago","raiz":null,"comp":null},"geometry":{"type":"Point","coordinates":[-70.640725,-33.461465]}},{"type":"Feature","properties":{"id":"00027_MH_13101","nombre":"Palacio de La Moneda - Antigua Real casa de Moneda","categoria":"Monumento Histórico","tipo":"Inmueble","comuna":"Santiago","raiz":null,"comp":null},"geometry":{"type":"Point","coordinates":[-70.653875,-33.442809]}},{"type":"Feature","properties":{"id":"00183_MH_13101","nombre":"Palacio de los Tribunales de Justicia","categoria":"Monumento Histórico","tipo":"Inmueble","comuna":"Santiago","raiz":null,"comp":null},"geometry":{"type":"Point","coordinates":[-70.653071,-33.439153]}},{"type":"Feature","properties":{"id":"01361_MH_13101","nombre":"Palacio Elguín","categoria":"Monumento Histórico","tipo":"Inmueble","comuna":"Santiago","raiz":null,"comp":null},"geometry":{"type":"Point","coordinates":[-70.665156,-33.446252]}},{"type":"Feature","properties":{"id":"00058_MH_13101","nombre":"Ex Palacio viejo de los Tribunales, antiguo Palacio de la Aduana de Santiago","categoria":"Monumento Histórico","tipo":"Inmueble","comuna":"Santiago","raiz":null,"comp":null},"geometry":{"type":"Point","coordinates":[-70.652195,-33.4389]}},{"type":"Feature","properties":{"id":"01244_MH_13101","nombre":"Sede Nacional del Colegio de Arquitectos de Chile A.G","categoria":"Monumento Histórico","tipo":"Inmueble","comuna":"Santiago","raiz":null,"comp":null},"geometry":{"type":"Point","coordinates":[-70.637013,-33.437469]}},{"type":"Feature","properties":{"id":"01316_MH_13101","nombre":"Teatro Cariola","categoria":"Monumento Histórico","tipo":"Inmueble","comuna":"Santiago","raiz":null,"comp":null},"geometry":{"type":"Point","coordinates":[-70.650524,-33.4482]}},{"type":"Feature","properties":{"id":"01359_MH_13101","nombre":"Teatro Parque Cousiño (ex Humoresque)","categoria":"Monumento Histórico","tipo":"Inmueble","comuna":"Santiago","raiz":null,"comp":null},"geometry":{"type":"Point","coordinates":[-70.655559,-33.462024]}},{"type":"Feature","properties":{"id":"00689_MH_13123","nombre":"Palacio Falabella","categoria":"Monumento Histórico","tipo":"Inmueble","comuna":"Providencia","raiz":null,"comp":null},"geometry":{"type":"Point","coordinates":[-70.609839,-33.432233]}},{"type":"Feature","properties":{"id":"01402_MH_13111","nombre":"Mural El primer Gol del Pueblo Chileno de Roberto Matta","categoria":"Monumento Histórico","tipo":"Inmueble","comuna":"La Granja","raiz":null,"comp":null},"geometry":{"type":"Point","coordinates":[-70.632365,-33.543684]}},{"type":"Feature","properties":{"id":"01408_MH_13101","nombre":"Edificio Sede del Tribunal Calificador de Elecciones","categoria":"Monumento Histórico","tipo":"Inmueble","comuna":"Santiago","raiz":null,"comp":null},"geometry":{"type":"Point","coordinates":[-70.655105,-33.439043]}},{"type":"Feature","properties":{"id":"00666_MH_13108","nombre":"Casa de Av. Francia N° 1442","categoria":"Monumento Histórico","tipo":"Inmueble","comuna":"Independencia","raiz":null,"comp":null},"geometry":{"type":"Point","coordinates":[-70.660013,-33.411721]}},{"type":"Feature","properties":{"id":"00288_MH_13101","nombre":"Club de la Unión","categoria":"Monumento Histórico","tipo":"Inmueble","comuna":"Santiago","raiz":null,"comp":null},"geometry":{"type":"Point","coordinates":[-70.651435,-33.443355]}},{"type":"Feature","properties":{"id":"01464_MH_13110","nombre":"Sitio donde ocurrió la Matanza de Lo Cañas","categoria":"Monumento Histórico","tipo":"Inmueble","comuna":"La Florida","raiz":null,"comp":null},"geometry":{"type":"Point","coordinates":[-70.517175,-33.53051]}},{"type":"Feature","properties":{"id":"00814_MH_13123","nombre":"Casa ubicada en Av. Vicuña Mackenna Nº 84","categoria":"Monumento Histórico","tipo":"Inmueble","comuna":"Providencia","raiz":null,"comp":null},"geometry":{"type":"Point","coordinates":[-70.633858,-33.440698]}},{"type":"Feature","properties":{"id":"01497_MH_13127","nombre":"Cementerio Católico","categoria":"Monumento Histórico","tipo":"Inmueble","comuna":"Recoleta","raiz":null,"comp":null},"geometry":{"type":"Point","coordinates":[-70.642273,-33.413026]}},{"type":"Feature","properties":{"id":"01492_MH_13123","nombre":"Mural obra de María Martner y de Juan O'Gorman del Balneario Tupahue","categoria":"Monumento Histórico","tipo":"Inmueble","comuna":"Providencia","raiz":null,"comp":null},"geometry":{"type":"Point","coordinates":[-70.622837,-33.415835]}},{"type":"Feature","properties":{"id":"00926_MH_13502","nombre":"Casona de la Hacienda Alhué y predio que la circunda","categoria":"Monumento Histórico","tipo":"Inmueble","comuna":"Alhué","raiz":null,"comp":null},"geometry":{"type":"Point","coordinates":[-71.210801,-34.022805]}},{"type":"Feature","properties":{"id":"01498_MH_13108","nombre":"Anfiteatro del Instituto de Anatomía","categoria":"Monumento Histórico","tipo":"Inmueble","comuna":"Independencia","raiz":null,"comp":null},"geometry":{"type":"Point","coordinates":[-70.654582,-33.41797]}},{"type":"Feature","properties":{"id":"00382_MH_13108","nombre":"Antiguo edificio del Instituto de Higiene","categoria":"Monumento Histórico","tipo":"Inmueble","comuna":"Independencia","raiz":null,"comp":null},"geometry":{"type":"Point","coordinates":[-70.653478,-33.431237]}},{"type":"Feature","properties":{"id":"00188_MH_13101","nombre":"Estación Mapocho (CCEM)","categoria":"Monumento Histórico","tipo":"Inmueble","comuna":"Santiago","raiz":null,"comp":"Estación, edificios originales y estructura metálica que techa los andenes"},"geometry":{"type":"Point","coordinates":[-70.654507,-33.432225]}},{"type":"Feature","properties":{"id":"00376_MH_13101","nombre":"Mercado Central","categoria":"Monumento Histórico","tipo":"Inmueble","comuna":"Santiago","raiz":null,"comp":null},"geometry":{"type":"Point","coordinates":[-70.651042,-33.433783]}},{"type":"Feature","properties":{"id":"00910_MH_13109","nombre":"Edificio ubicado en Gran Avenida José Miguel Carrera Nº 8925, ex casa de la cultura de La Cisterna","categoria":"Monumento Histórico","tipo":"Inmueble","comuna":"La Cisterna","raiz":null,"comp":null},"geometry":{"type":"Point","coordinates":[-70.665077,-33.538953]}},{"type":"Feature","properties":{"id":"00968_MH_13109","nombre":"Inmueble conocido como “Nido 20”","categoria":"Monumento Histórico","tipo":"Inmueble","comuna":"La Cisterna","raiz":null,"comp":null},"geometry":{"type":"Point","coordinates":[-70.661239,-33.523806]}},{"type":"Feature","properties":{"id":"01019_MH_13114","nombre":"Casa presidencial de Tomás Moro","categoria":"Monumento Histórico","tipo":"Inmueble","comuna":"Las Condes","raiz":null,"comp":null},"geometry":{"type":"Point","coordinates":[-70.551756,-33.410604]}},{"type":"Feature","properties":{"id":"00817_MH_13120","nombre":"Sitio histórico ubicado en Av. José Domingo Cañas Nº 1367","categoria":"Monumento Histórico","tipo":"Inmueble","comuna":"Ñuñoa","raiz":null,"comp":null},"geometry":{"type":"Point","coordinates":[-70.617243,-33.456282]}},{"type":"Feature","properties":{"id":"00898_MH_13122","nombre":"Parque por La Paz Villa Grimaldi","categoria":"Monumento Histórico","tipo":"Inmueble","comuna":"Peñalolén","raiz":null,"comp":null},"geometry":{"type":"Point","coordinates":[-70.542505,-33.463664]}},{"type":"Feature","properties":{"id":"00931_MH_13123","nombre":"Casa del ex Presidente de la República don Eduardo Frei Montalva","categoria":"Monumento Histórico","tipo":"Inmueble","comuna":"Providencia","raiz":null,"comp":null},"geometry":{"type":"Point","coordinates":[-70.622374,-33.443908]}},{"type":"Feature","properties":{"id":"00799_MH_MT","nombre":"Funicular del cerro San Cristóbal","categoria":"Monumento Histórico","tipo":"Inmueble","comuna":"Multiterritorial","raiz":null,"comp":null},"geometry":{"type":"Point","coordinates":[-70.634639,-33.428022]}},{"type":"Feature","properties":{"id":"00924_MH_13123","nombre":"Palacio Schacht","categoria":"Monumento Histórico","tipo":"Inmueble","comuna":"Providencia","raiz":null,"comp":null},"geometry":{"type":"Point","coordinates":[-70.612474,-33.425163]}},{"type":"Feature","properties":{"id":"00505_MH_13123","nombre":"Casa de Pablo Neruda, ubicada en calle Fernando Márquez de la Plata N°019","categoria":"Monumento Histórico","tipo":"Inmueble","comuna":"Providencia","raiz":null,"comp":null},"geometry":{"type":"Point","coordinates":[-70.634156,-33.431201]}},{"type":"Feature","properties":{"id":"00497_MH_13123","nombre":"Templo parroquial de los Santos Ángeles Custodios","categoria":"Monumento Histórico","tipo":"Inmueble","comuna":"Providencia","raiz":null,"comp":null},"geometry":{"type":"Point","coordinates":[-70.63002,-33.436472]}},{"type":"Feature","properties":{"id":"00391_MH_13123","nombre":"Edificio del Hospital del Salvador","categoria":"Monumento Histórico","tipo":"Inmueble","comuna":"Providencia","raiz":null,"comp":null},"geometry":{"type":"Point","coordinates":[-70.624585,-33.437016]}},{"type":"Feature","properties":{"id":"00838_MH_13203","nombre":"Edificio del Ex Sanatorio Laennec","categoria":"Monumento Histórico","tipo":"Inmueble","comuna":"San José de Maipo","raiz":null,"comp":null},"geometry":{"type":"Point","coordinates":[-70.351896,-33.641309]}},{"type":"Feature","properties":{"id":"01011_MH_13101","nombre":"Edificio de calle Londres Nº 65 y 67","categoria":"Monumento Histórico","tipo":"Inmueble","comuna":"Santiago","raiz":null,"comp":null},"geometry":{"type":"Point","coordinates":[-70.648567,-33.444952]}},{"type":"Feature","properties":{"id":"00807_MH_13101","nombre":"Edificio de la ex Dirección General de Aprovisionamiento del Estado","categoria":"Monumento Histórico","tipo":"Inmueble","comuna":"Santiago","raiz":null,"comp":null},"geometry":{"type":"Point","coordinates":[-70.67895,-33.444465]}},{"type":"Feature","properties":{"id":"00836_MH_13101","nombre":"Sede de la Embajada de Argentina en Chile","categoria":"Monumento Histórico","tipo":"Inmueble","comuna":"Santiago","raiz":null,"comp":null},"geometry":{"type":"Point","coordinates":[-70.635214,-33.439463]}},{"type":"Feature","properties":{"id":"01026_MH_13101","nombre":"Edificio sede del Colegio de Enfermeras de Chile A. G.","categoria":"Monumento Histórico","tipo":"Inmueble","comuna":"Santiago","raiz":null,"comp":null},"geometry":{"type":"Point","coordinates":[-70.645703,-33.435949]}},{"type":"Feature","properties":{"id":"00512_MH_13101","nombre":"Iglesia de San Pedro","categoria":"Monumento Histórico","tipo":"Inmueble","comuna":"Santiago","raiz":null,"comp":null},"geometry":{"type":"Point","coordinates":[-70.647682,-33.435325]}},{"type":"Feature","properties":{"id":"01157_MH_13101","nombre":"Invernadero de la Quinta Normal","categoria":"Monumento Histórico","tipo":"Inmueble","comuna":"Santiago","raiz":null,"comp":null},"geometry":{"type":"Point","coordinates":[-70.681189,-33.44306]}},{"type":"Feature","properties":{"id":"00528_MH_13101","nombre":"Edificio del Museo Nacional de Historia Natural","categoria":"Monumento Histórico","tipo":"Inmueble","comuna":"Santiago","raiz":null,"comp":null},"geometry":{"type":"Point","coordinates":[-70.681787,-33.441535]}},{"type":"Feature","properties":{"id":"01502_MH_13101","nombre":"Teatro Huemúl","categoria":"Monumento Histórico","tipo":"Inmueble","comuna":"Santiago","raiz":null,"comp":null},"geometry":{"type":"Point","coordinates":[-70.651439,-33.474326]}},{"type":"Feature","properties":{"id":"00293_MH_13101","nombre":"Casa llamada de Velasco","categoria":"Monumento Histórico","tipo":"Inmueble","comuna":"Santiago","raiz":null,"comp":null},"geometry":{"type":"Point","coordinates":[-70.647181,-33.43554]}},{"type":"Feature","properties":{"id":"00038_MH_13101","nombre":"Casa Colorada","categoria":"Monumento Histórico","tipo":"Inmueble","comuna":"Santiago","raiz":null,"comp":null},"geometry":{"type":"Point","coordinates":[-70.649202,-33.438603]}},{"type":"Feature","properties":{"id":"00148_MH_13101","nombre":"Templo parroquial de El Sagrario","categoria":"Monumento Histórico","tipo":"Inmueble","comuna":"Santiago","raiz":null,"comp":null},"geometry":{"type":"Point","coordinates":[-70.651389,-33.437908]}},{"type":"Feature","properties":{"id":"00186_MH_13101","nombre":"Biblioteca Nacional","categoria":"Monumento Histórico","tipo":"Inmueble","comuna":"Santiago","raiz":null,"comp":null},"geometry":{"type":"Point","coordinates":[-70.645849,-33.442061]}},{"type":"Feature","properties":{"id":"00294_MH_13101","nombre":"Casa de Santo Domingo Nº 627","categoria":"Monumento Histórico","tipo":"Inmueble","comuna":"Santiago","raiz":null,"comp":null},"geometry":{"type":"Point","coordinates":[-70.646342,-33.43541]}},{"type":"Feature","properties":{"id":"01509_MH_13116","nombre":"Sitio donde fueron encontrados los cuerpos de Víctor Jara, Littre Quiroga y otras tres personas que no han sido identificadas","categoria":"Monumento Histórico","tipo":"Inmueble","comuna":"Lo Espejo","raiz":null,"comp":null},"geometry":{"type":"Point","coordinates":[-70.688049,-33.525451]}},{"type":"Feature","properties":{"id":"01517_MH_13101","nombre":"Ex centro de detención Clínica Santa Lucía","categoria":"Monumento Histórico","tipo":"Inmueble","comuna":"Santiago","raiz":null,"comp":null},"geometry":{"type":"Point","coordinates":[-70.644941,-33.440591]}},{"type":"Feature","properties":{"id":"01521_MH_13121","nombre":"Casas de André Jarlán y Pierre Dubois","categoria":"Monumento Histórico","tipo":"Inmueble","comuna":"Pedro Aguirre Cerda","raiz":null,"comp":null},"geometry":{"type":"Point","coordinates":[-70.678118,-33.488573]}},{"type":"Feature","properties":{"id":"01535_MH_13101","nombre":"Sede Social y Espacio de Memoria de los trabajadores de la construcción, excavadores y alcantarilleros de la Región Metropolitana","categoria":"Monumento Histórico","tipo":"Inmueble","comuna":"Santiago","raiz":null,"comp":null},"geometry":{"type":"Point","coordinates":[-70.647881,-33.450597]}},{"type":"Feature","properties":{"id":"01552_MH_13101","nombre":"Casa Matriz del Banco de Chile","categoria":"Monumento Histórico","tipo":"Inmueble","comuna":"Santiago","raiz":null,"comp":null},"geometry":{"type":"Point","coordinates":[-70.650516,-33.440178]}},{"type":"Feature","properties":{"id":"01547_MH_13108","nombre":"Piscina Escolar de la Universidad de Chile","categoria":"Monumento Histórico","tipo":"Inmueble","comuna":"Independencia","raiz":null,"comp":null},"geometry":{"type":"Point","coordinates":[-70.65231,-33.431368]}},{"type":"Feature","properties":{"id":"01548_MH_13108","nombre":"Consultorio N°2","categoria":"Monumento Histórico","tipo":"Inmueble","comuna":"Independencia","raiz":null,"comp":null},"geometry":{"type":"Point","coordinates":[-70.655626,-33.428925]}},{"type":"Feature","properties":{"id":"01549_MH_13101","nombre":"Sede Social de la Agrupación Nacional de Empleados Fiscales (ANEF)","categoria":"Monumento Histórico","tipo":"Inmueble","comuna":"Santiago","raiz":null,"comp":null},"geometry":{"type":"Point","coordinates":[-70.658803,-33.445269]}},{"type":"Feature","properties":{"id":"01559_MH_13101","nombre":"Casa de Ignacio Domeyko","categoria":"Monumento Histórico","tipo":"Inmueble","comuna":"Santiago","raiz":null,"comp":null},"geometry":{"type":"Point","coordinates":[-70.672943,-33.438436]}},{"type":"Feature","properties":{"id":"01576_MH_13105","nombre":"Monumento a los Mártires de la Aviación Militar Chilena","categoria":"Monumento Histórico","tipo":"Inmueble","comuna":"El Bosque","raiz":null,"comp":null},"geometry":{"type":"Point","coordinates":[-70.682806,-33.562845]}},{"type":"Feature","properties":{"id":"01574_MH_13114","nombre":"Villa Ministro Carlos Cortés (Villa San Luis de Las Condes)","categoria":"Monumento Histórico","tipo":"Inmueble","comuna":"Las Condes","raiz":null,"comp":null},"geometry":{"type":"Point","coordinates":[-70.571684,-33.403521]}},{"type":"Feature","properties":{"id":"01537_MH_13118","nombre":"Sitio de memoria centro de detención denominado Venda Sexy - Discoteque","categoria":"Monumento Histórico","tipo":"Inmueble","comuna":"Macul","raiz":null,"comp":null},"geometry":{"type":"Point","coordinates":[-70.5876,-33.482987]}},{"type":"Feature","properties":{"id":"01220_SN_MT","nombre":"Altos de Cantillana-Horcón de Piedras y Roblería Cajón de Lisboa","categoria":"Santuario de la Naturaleza","tipo":"Inmueble","comuna":"Multiterritorial","raiz":null,"comp":null},"geometry":{"type":"Point","coordinates":[-70.994143,-33.910412]}},{"type":"Feature","properties":{"id":"00903_MH_13104","nombre":"Casa Consistorial de Conchalí. Ex casa patronal de la Chacra Lo Negrete","categoria":"Monumento Histórico","tipo":"Inmueble","comuna":"Conchalí","raiz":null,"comp":null},"geometry":{"type":"Point","coordinates":[-70.670866,-33.396323]}},{"type":"Feature","properties":{"id":"00677_MH_13101","nombre":"Puente metálico sobre el río Mapocho, que enfrenta a la Fuente Alemana, ubicada en el Parque Forestal","categoria":"Monumento Histórico","tipo":"Inmueble","comuna":"Santiago","raiz":null,"comp":"Puente"},"geometry":{"type":"Point","coordinates":[-70.63677,-33.435672]}},{"type":"Feature","properties":{"id":"00286_MH_13101","nombre":"Escuela Normal N°1","categoria":"Monumento Histórico","tipo":"Inmueble","comuna":"Santiago","raiz":null,"comp":null},"geometry":{"type":"Point","coordinates":[-70.678074,-33.44193]}},{"type":"Feature","properties":{"id":"00029_MH_13101","nombre":"Iglesia y convento de San Francisco","categoria":"Monumento Histórico","tipo":"Inmueble","comuna":"Santiago","raiz":null,"comp":"Iglesia"},"geometry":{"type":"Point","coordinates":[-70.647609,-33.443418]}},{"type":"Feature","properties":{"id":"00653_ZT_13101","nombre":"Barrio Santa Lucía-Mulato Gil de Castro-Parque Forestal","categoria":"Zona Típica o Pintoresca","tipo":"Inmueble","comuna":"Santiago","raiz":null,"comp":null},"geometry":{"type":"Point","coordinates":[-70.641714,-33.438161]}},{"type":"Feature","properties":{"id":"00679_ZT_MT","nombre":"Parque Forestal","categoria":"Zona Típica o Pintoresca","tipo":"Inmueble","comuna":"Multiterritorial","raiz":null,"comp":null},"geometry":{"type":"Point","coordinates":[-70.64534,-33.434236]}},{"type":"Feature","properties":{"id":"01674_MH_13301","nombre":"Sector Cerro Pan de Azúcar","categoria":"Monumento Histórico","tipo":"Inmueble","comuna":"Colina","raiz":null,"comp":null},"geometry":{"type":"Point","coordinates":[-70.689012,-33.307628]}},{"type":"Feature","properties":{"id":"01144_MH_13118","nombre":"Ex Casa Vásquez (Edificio Consistorial de Macul)","categoria":"Monumento Histórico","tipo":"Inmueble","comuna":"Macul","raiz":null,"comp":null},"geometry":{"type":"Point","coordinates":[-70.599684,-33.481758]}},{"type":"Feature","properties":{"id":"00385_MH_13119","nombre":"Templo Votivo Nacional","categoria":"Monumento Histórico","tipo":"Inmueble","comuna":"Maipú","raiz":null,"comp":null},"geometry":{"type":"Point","coordinates":[-70.765314,-33.511245]}},{"type":"Feature","properties":{"id":"00876_MH_13120","nombre":"Estadio Nacional","categoria":"Monumento Histórico","tipo":"Inmueble","comuna":"Ñuñoa","raiz":null,"comp":null},"geometry":{"type":"Point","coordinates":[-70.610567,-33.466048]}},{"type":"Feature","properties":{"id":"01675_MH_13301","nombre":"Sector Cerro La Pedregosa","categoria":"Monumento Histórico","tipo":"Inmueble","comuna":"Colina","raiz":null,"comp":null},"geometry":{"type":"Point","coordinates":[-70.663481,-33.313872]}},{"type":"Feature","properties":{"id":"01679_MH_13101","nombre":"Sede de la Fundación de Ayuda Social de las Iglesias Cristianas (FASIC)","categoria":"Monumento Histórico","tipo":"Inmueble","comuna":"Santiago","raiz":null,"comp":null},"geometry":{"type":"Point","coordinates":[-70.659969,-33.444754]}},{"type":"Feature","properties":{"id":"01683_MH_13127","nombre":"Casona El Tilo","categoria":"Monumento Histórico","tipo":"Inmueble","comuna":"Recoleta","raiz":null,"comp":null},"geometry":{"type":"Point","coordinates":[-70.657763,-33.40015]}},{"type":"Feature","properties":{"id":"01689_MH_13101","nombre":"Sitio de Memoria Cuartel N°1 del Servicio de Inteligencia de Carabineros (SICAR)","categoria":"Monumento Histórico","tipo":"Inmueble","comuna":"Santiago","raiz":null,"comp":null},"geometry":{"type":"Point","coordinates":[-70.654422,-33.441428]}},{"type":"Feature","properties":{"id":"01698_MH_13101","nombre":"Edificio Eguiguren Yrarrázaval","categoria":"Monumento Histórico","tipo":"Inmueble","comuna":"Santiago","raiz":null,"comp":null},"geometry":{"type":"Point","coordinates":[-70.65715,-33.447246]}},{"type":"Feature","properties":{"id":"01699_MH_13101","nombre":"Casa Valdés Bustamante","categoria":"Monumento Histórico","tipo":"Inmueble","comuna":"Santiago","raiz":null,"comp":null},"geometry":{"type":"Point","coordinates":[-70.657263,-33.446977]}},{"type":"Feature","properties":{"id":"01700_MH_13101","nombre":"Casa San Ignacio 85","categoria":"Monumento Histórico","tipo":"Inmueble","comuna":"Santiago","raiz":null,"comp":null},"geometry":{"type":"Point","coordinates":[-70.657275,-33.446883]}},{"type":"Feature","properties":{"id":"00296_MH_13301","nombre":"Casas del Fundo Quilapilún","categoria":"Monumento Histórico","tipo":"Inmueble","comuna":"Colina","raiz":null,"comp":null},"geometry":{"type":"Point","coordinates":[-70.730495,-33.091279]}},{"type":"Feature","properties":{"id":"01709_MH_13101","nombre":"Edificio de la ex Caja de Crédito Hipotecario","categoria":"Monumento Histórico","tipo":"Inmueble","comuna":"Santiago","raiz":null,"comp":null},"geometry":{"type":"Point","coordinates":[-70.654289,-33.440116]}},{"type":"Feature","properties":{"id":"00192_MH_MT","nombre":"Fortaleza Incaica de Chena y sus contornos","categoria":"Monumento Histórico","tipo":"Inmueble","comuna":"Multiterritorial","raiz":null,"comp":"Fortaleza y contornos"},"geometry":{"type":"Point","coordinates":[-70.747846,-33.615234]}},{"type":"Feature","properties":{"id":"00147_MH_13101","nombre":"Ex Palacio Arzobispal","categoria":"Monumento Histórico","tipo":"Inmueble","comuna":"Santiago","raiz":null,"comp":null},"geometry":{"type":"Point","coordinates":[-70.651566,-33.438231]}},{"type":"Feature","properties":{"id":"00031_MH_13101","nombre":"Iglesia de Santo Domingo","categoria":"Monumento Histórico","tipo":"Inmueble","comuna":"Santiago","raiz":null,"comp":null},"geometry":{"type":"Point","coordinates":[-70.650511,-33.435669]}},{"type":"Feature","properties":{"id":"01187_MH_13101","nombre":"Estadio Víctor Jara","categoria":"Monumento Histórico","tipo":"Inmueble","comuna":"Santiago","raiz":null,"comp":null},"geometry":{"type":"Point","coordinates":[-70.67458,-33.4507]}},{"type":"Feature","properties":{"id":"00859_MH_13101","nombre":"Iglesia de San Ignacio","categoria":"Monumento Histórico","tipo":"Inmueble","comuna":"Santiago","raiz":null,"comp":null},"geometry":{"type":"Point","coordinates":[-70.656851,-33.447419]}},{"type":"Feature","properties":{"id":"01713_MH_13101","nombre":"El Conjunto del Patronato San Antonio de Padua","categoria":"Monumento Histórico","tipo":"Inmueble","comuna":"Santiago","raiz":null,"comp":null},"geometry":{"type":"Point","coordinates":[-70.637973,-33.465419]}},{"type":"Feature","properties":{"id":"00675_MH_13101","nombre":"Puente metálico sobre el río Mapocho, que enfrenta a la calle Purísima al oriente","categoria":"Monumento Histórico","tipo":"Inmueble","comuna":"Santiago","raiz":null,"comp":"Puente"},"geometry":{"type":"Point","coordinates":[-70.638828,-33.435191]}},{"type":"Feature","properties":{"id":"00676_MH_13101","nombre":"Puente metálico sobre el río Mapocho, que enfrenta a la calle Purísima al poniente","categoria":"Monumento Histórico","tipo":"Inmueble","comuna":"Santiago","raiz":null,"comp":"Puente"},"geometry":{"type":"Point","coordinates":[-70.638938,-33.435164]}},{"type":"Feature","properties":{"id":"01275_MH_MT","nombre":"Segunda Cumbre del Parque Metropolitano de Santiago","categoria":"Monumento Histórico","tipo":"Inmueble","comuna":"Multiterritorial","raiz":"01239_MH_MT","comp":"Bilblioteca"},"geometry":{"type":"Point","coordinates":[-70.632232,-33.421963]}},{"type":"Feature","properties":{"id":"00028_MH_13101","nombre":"Catedral de Santiago","categoria":"Monumento Histórico","tipo":"Inmueble","comuna":"Santiago","raiz":null,"comp":null},"geometry":{"type":"Point","coordinates":[-70.651927,-33.437724]}},{"type":"Feature","properties":{"id":"00124_MH_13118","nombre":"Bodegas de la Viña Santa Carolina","categoria":"Monumento Histórico","tipo":"Inmueble","comuna":"Macul","raiz":null,"comp":null},"geometry":{"type":"Point","coordinates":[-70.616984,-33.47512]}},{"type":"Feature","properties":{"id":"00187_MH_13101","nombre":"Museo Nacional de Bellas Artes, comprendiendo también la parte ocupada actualmente por el Museo de Arte Contemporáneo","categoria":"Monumento Histórico","tipo":"Inmueble","comuna":"Santiago","raiz":null,"comp":null},"geometry":{"type":"Point","coordinates":[-70.643609,-33.435319]}},{"type":"Feature","properties":{"id":"00553_MH_13101","nombre":"Edificio del Archivo Nacional","categoria":"Monumento Histórico","tipo":"Inmueble","comuna":"Santiago","raiz":null,"comp":null},"geometry":{"type":"Point","coordinates":[-70.645241,-33.441971]}},{"type":"Feature","properties":{"id":"01039_ZT_13106","nombre":"Maestranza de Ferrocarriles San Eugenio y edificaciones anexas","categoria":"Zona Típica o Pintoresca","tipo":"Inmueble","comuna":"Estación Central","raiz":null,"comp":null},"geometry":{"type":"Point","coordinates":[-70.677114,-33.474643]}},{"type":"Feature","properties":{"id":"01238_ZT_13203","nombre":"Centro Histórico de San José de Maipo","categoria":"Zona Típica o Pintoresca","tipo":"Inmueble","comuna":"San José de Maipo","raiz":null,"comp":null},"geometry":{"type":"Point","coordinates":[-70.352658,-33.639791]}},{"type":"Feature","properties":{"id":"01563_MH_13108","nombre":"Sitio de Memoria Cuartel Borgoño","categoria":"Monumento Histórico","tipo":"Inmueble","comuna":"Independencia","raiz":null,"comp":null},"geometry":{"type":"Point","coordinates":[-70.65449,-33.430945]}},{"type":"Feature","properties":{"id":"01277_MH_13127","nombre":"Segunda Cumbre del Parque Metropolitano de Santiago","categoria":"Monumento Histórico","tipo":"Inmueble","comuna":"Recoleta","raiz":"01239_MH_MT","comp":"Anexo casa"},"geometry":{"type":"Point","coordinates":[-70.632403,-33.422027]}},{"type":"Feature","properties":{"id":"01493_ZT_MT","nombre":"Entorno del Mural obra de María Martner y de Juan O'Gorman del Balneario Tupahue","categoria":"Zona Típica o Pintoresca","tipo":"Inmueble","comuna":"Multiterritorial","raiz":null,"comp":null},"geometry":{"type":"Point","coordinates":[-70.623595,-33.415852]}},{"type":"Feature","properties":{"id":"01228_MH_MT","nombre":"Casco Histórico del Cementerio General","categoria":"Monumento Histórico","tipo":"Inmueble","comuna":"Multiterritorial","raiz":null,"comp":null},"geometry":{"type":"Point","coordinates":[-70.64982,-33.415542]}},{"type":"Feature","properties":{"id":"01763_MH_13101","nombre":"Mural Paso Bajo Nivel Santa Lucía","categoria":"Monumento Histórico","tipo":"Inmueble","comuna":"Santiago","raiz":null,"comp":null},"geometry":{"type":"Point","coordinates":[-70.643819,-33.442339]}},{"type":"Feature","properties":{"id":"01770_SN_13302","nombre":"Laguna de Batuco","categoria":"Santuario de la Naturaleza","tipo":"Inmueble","comuna":"Lampa","raiz":null,"comp":null},"geometry":{"type":"Point","coordinates":[-70.830659,-33.207445]}},{"type":"Feature","properties":{"id":"01773_MH_13123","nombre":"Teatro Oriente","categoria":"Monumento Histórico","tipo":"Inmueble","comuna":"Providencia","raiz":null,"comp":null},"geometry":{"type":"Point","coordinates":[-70.612984,-33.422588]}},{"type":"Feature","properties":{"id":"01828_MH_13101","nombre":"Iglesia Corpus Domini","categoria":"Monumento Histórico","tipo":"Inmueble","comuna":"Santiago","raiz":null,"comp":null},"geometry":{"type":"Point","coordinates":[-70.665058,-33.437326]}},{"type":"Feature","properties":{"id":"01829_MH_13123","nombre":"Sitio de Memoria Centro Clandestino de Detención Subterráneo del ex Hospital Militar de Santiago","categoria":"Monumento Histórico","tipo":"Inmueble","comuna":"Providencia","raiz":null,"comp":null},"geometry":{"type":"Point","coordinates":[-70.604755,-33.419109]}},{"type":"Feature","properties":{"id":"01843_MH_13123","nombre":"Casa de Elena Caffarena Morice","categoria":"Monumento Histórico","tipo":"Inmueble","comuna":"Providencia","raiz":null,"comp":null},"geometry":{"type":"Point","coordinates":[-70.629126,-33.443403]}},{"type":"Feature","properties":{"id":"01844_MH_13110","nombre":"Sitio de Memoria ex Centro Clandestino de Detención y Tortura Nido 18","categoria":"Monumento Histórico","tipo":"Inmueble","comuna":"La Florida","raiz":null,"comp":null},"geometry":{"type":"Point","coordinates":[-70.587164,-33.537221]}},{"type":"Feature","properties":{"id":"01849_MH_13130","nombre":"Sitio de Memoria Casa Santa Fe 725","categoria":"Monumento Histórico","tipo":"Inmueble","comuna":"San Miguel","raiz":null,"comp":null},"geometry":{"type":"Point","coordinates":[-70.647184,-33.512007]}},{"type":"Feature","properties":{"id":"01861_MH_13129","nombre":"Sitio de Memoria Casa Varas Mena N°417","categoria":"Monumento Histórico","tipo":"Inmueble","comuna":"San Joaquín","raiz":null,"comp":null},"geometry":{"type":"Point","coordinates":[-70.632996,-33.51262]}},{"type":"Feature","properties":{"id":"01857_MH_13503","nombre":"Sitio de Memoria ex Retén de Carabineros de Curacaví","categoria":"Monumento Histórico","tipo":"Inmueble","comuna":"Curacaví","raiz":null,"comp":null},"geometry":{"type":"Point","coordinates":[-71.134822,-33.405082]}},{"type":"Feature","properties":{"id":"01865_SN_1320","nombre":"Cruz de Piedra","categoria":"Santuario de la Naturaleza","tipo":"Inmueble","comuna":"San José de Maipo","raiz":null,"comp":null},"geometry":{"type":"Point","coordinates":[-69.942545,-34.147192]}},{"type":"Feature","properties":{"id":"01872_MH_13101","nombre":"Teatro Manuel Rodríguez","categoria":"Monumento Histórico","tipo":"Inmueble","comuna":"Santiago","raiz":null,"comp":null},"geometry":{"type":"Point","coordinates":[-70.665054,-33.451866]}},{"type":"Feature","properties":{"id":"01875_MH_13101","nombre":"Conjunto de Edificios Aillavilú","categoria":"Monumento Histórico","tipo":"Inmueble","comuna":"Santiago","raiz":null,"comp":null},"geometry":{"type":"Point","coordinates":[-70.652651,-33.433252]}},{"type":"Feature","properties":{"id":"01879_ZT_13401","nombre":"Población Obrero Ferroviaria de San Bernardo","categoria":"Zona Típica o Pintoresca","tipo":"Inmueble","comuna":"San Bernardo","raiz":null,"comp":null},"geometry":{"type":"Point","coordinates":[-70.700718,-33.604761]}},{"type":"Feature","properties":{"id":"01882_MH_13101","nombre":"Casa de la Memoria Sola Sierra","categoria":"Monumento Histórico","tipo":"Inmueble","comuna":"Santiago","raiz":null,"comp":null},"geometry":{"type":"Point","coordinates":[-70.66906,-33.431485]}},{"type":"Feature","properties":{"id":"01892_MH_13101","nombre":"Sitio de Memoria Puente Bulnes","categoria":"Monumento Histórico","tipo":"Inmueble","comuna":"Santiago","raiz":null,"comp":null},"geometry":{"type":"Point","coordinates":[-70.671434,-33.426655]}},{"type":"Feature","properties":{"id":"01894_MH_13127","nombre":"Memorial Ejecutados Políticos y Detenidos Desaparecidos del Cementerio General","categoria":"Monumento Histórico","tipo":"Inmueble","comuna":"Recoleta","raiz":null,"comp":null},"geometry":{"type":"Point","coordinates":[-70.644558,-33.412722]}},{"type":"Feature","properties":{"id":"01895_MH_13101","nombre":"Palacio Espínola Pereira","categoria":"Monumento Histórico","tipo":"Inmueble","comuna":"Santiago","raiz":null,"comp":null},"geometry":{"type":"Point","coordinates":[-70.65477,-33.445581]}},{"type":"Feature","properties":{"id":"01902_MH_13108","nombre":"Edificio del Servicio Médico Legal","categoria":"Monumento Histórico","tipo":"Inmueble","comuna":"Independencia","raiz":null,"comp":null},"geometry":{"type":"Point","coordinates":[-70.650911,-33.418985]}},{"type":"Feature","properties":{"id":"01903_MH_13127","nombre":"Sitio de Memoria casa Pedro Donoso N° 582-A, Matanza de Corpus Christi","categoria":"Monumento Histórico","tipo":"Inmueble","comuna":"Recoleta","raiz":null,"comp":null},"geometry":{"type":"Point","coordinates":[-70.641828,-33.397376]}},{"type":"Feature","properties":{"id":"01905_MH_13101","nombre":"Internado Nacional Barros Arana","categoria":"Monumento Histórico","tipo":"Inmueble","comuna":"Santiago","raiz":null,"comp":null},"geometry":{"type":"Point","coordinates":[-70.682578,-33.437356]}},{"type":"Feature","properties":{"id":"01921_MH_13108","nombre":"Casa y Archivo del Movimiento Pro Emancipación de la Mujer Chilena (MEMCH)","categoria":"Monumento Histórico","tipo":"Inmueble","comuna":"Independencia","raiz":null,"comp":null},"geometry":{"type":"Point","coordinates":[-70.659352,-33.416914]}}]}